{
"type": "FeatureCollection",
"name": "RT_001",
"xy_coordinate_resolution": 1e-06,
"features": [
{"type":"Feature","properties":{"ruta_id":"Ruta 14","sentido":null},"geometry":{"type":"LineString","coordinates":[[-70.254315,-18.08015],[-70.254501,-18.079841],[-70.254629,-18.078631],[-70.254807,-18.076886],[-70.254911,-18.075739],[-70.254954,-18.075271],[-70.255016,-18.074682],[-70.255094,-18.073784],[-70.255189,-18.07283],[-70.255299,-18.071678],[-70.255393,-18.070713],[-70.255583,-18.068767],[-70.255705,-18.067526],[-70.255779,-18.066593],[-70.255949,-18.064663],[-70.256015,-18.064331],[-70.256061,-18.063737],[-70.256101,-18.06333],[-70.25621,-18.062465],[-70.256371,-18.061181],[-70.256521,-18.059933],[-70.256588,-18.05938],[-70.256614,-18.058743],[-70.25664,-18.058245],[-70.256688,-18.05699],[-70.25671,-18.056507],[-70.2568,-18.055797],[-70.256913,-18.054898],[-70.257017,-18.053969],[-70.257103,-18.053071],[-70.257101,-18.052474],[-70.257047,-18.051676],[-70.25701,-18.051342],[-70.256832,-18.05098],[-70.256602,-18.050509],[-70.256562,-18.050426],[-70.256533,-18.05039],[-70.256491,-18.050369],[-70.254917,-18.050429],[-70.254191,-18.050464],[-70.254109,-18.049014],[-70.254085,-18.048336],[-70.254049,-18.047638],[-70.252995,-18.047686],[-70.251741,-18.047738],[-70.249968,-18.04782],[-70.248612,-18.04789],[-70.248354,-18.04792],[-70.248889,-18.047145],[-70.249538,-18.046182],[-70.25029,-18.045145],[-70.250662,-18.044568],[-70.250887,-18.044059],[-70.251137,-18.043467],[-70.251325,-18.042868],[-70.251414,-18.04238],[-70.251483,-18.041924],[-70.251508,-18.041604],[-70.251531,-18.041255],[-70.25153,-18.040681],[-70.251497,-18.039672],[-70.251437,-18.038521],[-70.251405,-18.037446],[-70.251343,-18.036221],[-70.251302,-18.03538],[-70.251256,-18.034332],[-70.251223,-18.033493],[-70.251176,-18.032544],[-70.251124,-18.031517],[-70.251074,-18.030362],[-70.251034,-18.02942],[-70.251002,-18.028737],[-70.25099,-18.028469],[-70.250982,-18.028377],[-70.250977,-18.028336],[-70.250964,-18.028292],[-70.250939,-18.028252],[-70.250906,-18.028218],[-70.25081,-18.028156],[-70.25072,-18.028086],[-70.250667,-18.028004],[-70.250633,-18.027913],[-70.250618,-18.027848],[-70.250617,-18.027778],[-70.250629,-18.027683],[-70.250666,-18.027588],[-70.250713,-18.027507],[-70.250784,-18.02744],[-70.25085,-18.027407],[-70.25091,-18.027365],[-70.250973,-18.027273],[-70.251025,-18.027122],[-70.251126,-18.026671],[-70.251262,-18.026096],[-70.251382,-18.025662],[-70.251604,-18.025035],[-70.251704,-18.024811],[-70.251954,-18.024069],[-70.252256,-18.023179],[-70.252526,-18.022412],[-70.252685,-18.021963],[-70.252903,-18.021217],[-70.253029,-18.020716],[-70.253084,-18.02025],[-70.253137,-18.019336],[-70.253192,-18.018375],[-70.25322,-18.017743],[-70.253242,-18.017392],[-70.253268,-18.016939],[-70.252353,-18.016671],[-70.252039,-18.016538],[-70.251754,-18.016334],[-70.251481,-18.016105],[-70.250683,-18.015441],[-70.249354,-18.01436],[-70.248341,-18.013546],[-70.247909,-18.013182],[-70.24736,-18.012771],[-70.246438,-18.012056],[-70.24523,-18.011094],[-70.245579,-18.01063],[-70.245766,-18.010305],[-70.245789,-18.010217],[-70.245892,-18.010014],[-70.246056,-18.009734],[-70.246375,-18.00915],[-70.246858,-18.008307],[-70.247251,-18.007606],[-70.247444,-18.007269],[-70.247007,-18.00696],[-70.246629,-18.006792],[-70.246489,-18.006748],[-70.246452,-18.006782],[-70.246408,-18.006811],[-70.246353,-18.006834],[-70.246293,-18.006851],[-70.246211,-18.006843],[-70.246132,-18.006816],[-70.246085,-18.006783],[-70.246033,-18.006754],[-70.24504,-18.006532],[-70.24377,-18.006256],[-70.242816,-18.006037],[-70.242255,-18.005901],[-70.241714,-18.005663],[-70.241045,-18.005274],[-70.240586,-18.004938],[-70.240059,-18.004548],[-70.240208,-18.004367],[-70.240595,-18.004664],[-70.241034,-18.004922],[-70.241392,-18.005064],[-70.242742,-18.003627],[-70.243347,-18.002891],[-70.244028,-18.002069],[-70.244343,-18.001612],[-70.244594,-18.001135],[-70.24489,-18.000338],[-70.244919,-18.000198],[-70.244912,-17.998783],[-70.244897,-17.99763],[-70.244888,-17.996351],[-70.244901,-17.995256],[-70.244921,-17.994279],[-70.245064,-17.994241],[-70.245863,-17.994234],[-70.246557,-17.994229],[-70.247483,-17.994224],[-70.248966,-17.994237],[-70.250278,-17.994259],[-70.250807,-17.994257],[-70.251217,-17.9943],[-70.251859,-17.994418],[-70.252426,-17.994591],[-70.253012,-17.994813],[-70.253284,-17.994937],[-70.253526,-17.995082],[-70.254267,-17.995626],[-70.255267,-17.996372],[-70.256127,-17.996995],[-70.257363,-17.99789],[-70.257298,-17.99805],[-70.256798,-17.998693],[-70.256411,-17.999191],[-70.256296,-17.999633],[-70.256123,-18.000304],[-70.255934,-18.000706],[-70.255735,-18.00103],[-70.255535,-18.00129],[-70.254956,-18.002027],[-70.254774,-18.002175],[-70.254162,-18.002845],[-70.253866,-18.003204],[-70.252415,-18.004784],[-70.251441,-18.005859],[-70.251282,-18.005994],[-70.250633,-18.006711],[-70.249825,-18.007532],[-70.249418,-18.007939],[-70.249138,-18.008265],[-70.248922,-18.008512],[-70.248408,-18.009172],[-70.247889,-18.009868],[-70.247415,-18.010529],[-70.247062,-18.010973],[-70.246737,-18.011449],[-70.24646,-18.011787],[-70.24706,-18.012271],[-70.248123,-18.0131],[-70.249314,-18.014068],[-70.250104,-18.014622],[-70.250854,-18.015121],[-70.251171,-18.015334],[-70.251521,-18.015561],[-70.251803,-18.015749],[-70.251934,-18.015785],[-70.252697,-18.01609],[-70.253057,-18.016338],[-70.253109,-18.016364],[-70.253342,-18.016542],[-70.254239,-18.017179],[-70.25402,-18.017426],[-70.253383,-18.01699],[-70.253353,-18.017007],[-70.253333,-18.017458],[-70.253261,-18.017674],[-70.253222,-18.018381],[-70.253205,-18.018669],[-70.253174,-18.019286],[-70.253158,-18.019637],[-70.253122,-18.020257],[-70.253055,-18.020738],[-70.25294,-18.021219],[-70.252734,-18.021906],[-70.252602,-18.022273],[-70.252393,-18.022888],[-70.252291,-18.02317],[-70.251991,-18.024069],[-70.25173,-18.024845],[-70.251565,-18.025377],[-70.251336,-18.026095],[-70.251247,-18.026404],[-70.251169,-18.026792],[-70.251148,-18.027068],[-70.251185,-18.02718],[-70.251238,-18.027283],[-70.251334,-18.027399],[-70.251439,-18.027507],[-70.251487,-18.027566],[-70.251524,-18.027637],[-70.251549,-18.027741],[-70.251552,-18.02785],[-70.251523,-18.027957],[-70.251465,-18.028058],[-70.251368,-18.028147],[-70.25126,-18.02822],[-70.25121,-18.028283],[-70.251192,-18.028319],[-70.25118,-18.028357],[-70.251184,-18.028492],[-70.251225,-18.029506],[-70.251279,-18.03103],[-70.251325,-18.032007],[-70.251377,-18.033177],[-70.251436,-18.03432],[-70.251445,-18.034538],[-70.251468,-18.034847],[-70.251543,-18.035215],[-70.251605,-18.036353],[-70.251649,-18.037286],[-70.251661,-18.03774],[-70.252239,-18.037715],[-70.253144,-18.037676],[-70.254113,-18.03763],[-70.255393,-18.03756],[-70.256015,-18.037546],[-70.256082,-18.039113],[-70.256157,-18.040497],[-70.256191,-18.04147],[-70.256275,-18.04173],[-70.256529,-18.041999],[-70.258187,-18.043425],[-70.259356,-18.044455],[-70.259663,-18.044725],[-70.258676,-18.045807],[-70.25825,-18.046255],[-70.257864,-18.046276],[-70.256925,-18.046309],[-70.256409,-18.046339],[-70.256424,-18.046782],[-70.256505,-18.048203],[-70.256559,-18.049675],[-70.25657,-18.049774],[-70.256603,-18.049868],[-70.256674,-18.049956],[-70.256761,-18.050033],[-70.256818,-18.050046],[-70.256877,-18.050057],[-70.25693,-18.050074],[-70.256981,-18.050105],[-70.257016,-18.050139],[-70.257041,-18.050177],[-70.257065,-18.05022],[-70.257083,-18.050267],[-70.257111,-18.050579],[-70.257164,-18.051123],[-70.257182,-18.051667],[-70.257242,-18.052937],[-70.257237,-18.05331],[-70.257139,-18.053998],[-70.257023,-18.054922],[-70.256911,-18.0558],[-70.256853,-18.056227],[-70.256818,-18.056558],[-70.256778,-18.057418],[-70.256747,-18.058354],[-70.256702,-18.059511],[-70.256548,-18.060655],[-70.256379,-18.062021],[-70.256225,-18.063335],[-70.256108,-18.064356],[-70.256046,-18.065105],[-70.255915,-18.066573],[-70.255843,-18.067594],[-70.255742,-18.068606],[-70.255543,-18.070706],[-70.255399,-18.072258],[-70.255242,-18.073828],[-70.255148,-18.074758],[-70.255053,-18.07573],[-70.254962,-18.076712],[-70.254843,-18.077956],[-70.254752,-18.078793],[-70.254638,-18.079838],[-70.254413,-18.080198]]}},
{"type":"Feature","properties":{"ruta_id":"Ruta 1","sentido":null},"geometry":{"type":"LineString","coordinates":[[-70.250515,-18.077754],[-70.250837,-18.077246],[-70.250897,-18.076733],[-70.250985,-18.075831],[-70.251067,-18.075039],[-70.251167,-18.073868],[-70.251263,-18.072985],[-70.251358,-18.071997],[-70.251437,-18.070856],[-70.251545,-18.069944],[-70.25163,-18.068907],[-70.251768,-18.067728],[-70.251872,-18.066663],[-70.251961,-18.065698],[-70.252007,-18.065073],[-70.252013,-18.064845],[-70.252004,-18.064825],[-70.251983,-18.064815],[-70.251899,-18.064797],[-70.251778,-18.06476],[-70.251679,-18.064713],[-70.251585,-18.064652],[-70.251518,-18.064584],[-70.251458,-18.064504],[-70.251411,-18.064404],[-70.25138,-18.06429],[-70.251377,-18.064186],[-70.251393,-18.064086],[-70.251439,-18.063952],[-70.251512,-18.063828],[-70.251594,-18.063745],[-70.251685,-18.063687],[-70.251782,-18.06363],[-70.251911,-18.063592],[-70.251843,-18.062207],[-70.25178,-18.060897],[-70.251723,-18.05945],[-70.251701,-18.058532],[-70.251661,-18.05692],[-70.251603,-18.055786],[-70.251546,-18.0547],[-70.251491,-18.053583],[-70.251533,-18.053161],[-70.25148,-18.052243],[-70.251445,-18.051673],[-70.251414,-18.05096],[-70.251405,-18.050606],[-70.251445,-18.050466],[-70.252254,-18.05043],[-70.253756,-18.050354],[-70.25498,-18.050295],[-70.255762,-18.050254],[-70.256178,-18.050219],[-70.256462,-18.050199],[-70.256401,-18.04877],[-70.256348,-18.047519],[-70.25631,-18.046761],[-70.256254,-18.045772],[-70.256212,-18.04486],[-70.256199,-18.044337],[-70.254753,-18.044404],[-70.253094,-18.04447],[-70.251979,-18.044514],[-70.251039,-18.044549],[-70.250664,-18.04456],[-70.250877,-18.044113],[-70.251158,-18.043417],[-70.251375,-18.042639],[-70.251476,-18.041923],[-70.251527,-18.041369],[-70.25152,-18.040228],[-70.251479,-18.039347],[-70.251426,-18.038319],[-70.251381,-18.037103],[-70.251351,-18.036306],[-70.251297,-18.035204],[-70.251257,-18.034178],[-70.251209,-18.033232],[-70.251158,-18.032303],[-70.251117,-18.031277],[-70.251078,-18.030312],[-70.251008,-18.028792],[-70.250998,-18.028424],[-70.250991,-18.02836],[-70.250973,-18.0283],[-70.250936,-18.028242],[-70.25089,-18.028201],[-70.25082,-18.028162],[-70.250745,-18.028107],[-70.250677,-18.028027],[-70.250634,-18.027937],[-70.250611,-18.02781],[-70.250617,-18.027694],[-70.250641,-18.027623],[-70.250676,-18.027551],[-70.25075,-18.027476],[-70.250816,-18.027427],[-70.250899,-18.027366],[-70.250971,-18.027268],[-70.25101,-18.027168],[-70.251267,-18.026092],[-70.251348,-18.025775],[-70.251459,-18.025459],[-70.251645,-18.024965],[-70.251943,-18.024087],[-70.252243,-18.023212],[-70.252396,-18.022763],[-70.252606,-18.022189],[-70.252729,-18.021803],[-70.252898,-18.021247],[-70.253049,-18.020583],[-70.253093,-18.020245],[-70.253109,-18.019898],[-70.253154,-18.019148],[-70.253186,-18.018446],[-70.25322,-18.01777],[-70.253247,-18.017243],[-70.253267,-18.016947],[-70.253079,-18.016875],[-70.252547,-18.016727],[-70.252039,-18.016535],[-70.251541,-18.016166],[-70.250944,-18.015662],[-70.250447,-18.015257],[-70.249904,-18.014812],[-70.249463,-18.014459],[-70.249047,-18.014106],[-70.248664,-18.013798],[-70.247954,-18.013216],[-70.246728,-18.01229],[-70.246313,-18.011958],[-70.245892,-18.011629],[-70.245231,-18.011101],[-70.245572,-18.01064],[-70.245761,-18.010323],[-70.245821,-18.010132],[-70.246005,-18.009825],[-70.246259,-18.009373],[-70.246521,-18.008903],[-70.246843,-18.00833],[-70.247235,-18.007637],[-70.247439,-18.007269],[-70.247276,-18.007139],[-70.246805,-18.006859],[-70.246498,-18.006745],[-70.246454,-18.006781],[-70.246399,-18.006816],[-70.246333,-18.006837],[-70.246262,-18.006851],[-70.246193,-18.006836],[-70.246127,-18.006813],[-70.246083,-18.006784],[-70.246042,-18.006754],[-70.244807,-18.006474],[-70.243727,-18.006242],[-70.242739,-18.006011],[-70.242188,-18.00587],[-70.241833,-18.005727],[-70.241475,-18.005529],[-70.241083,-18.005301],[-70.240601,-18.004961],[-70.240122,-18.004604],[-70.23959,-18.004224],[-70.239151,-18.003894],[-70.238373,-18.003304],[-70.237463,-18.002644],[-70.236903,-18.002331],[-70.236235,-18.002011],[-70.235411,-18.001591],[-70.234721,-18.001239],[-70.235101,-18.000696],[-70.235657,-17.999908],[-70.236481,-17.998759],[-70.23715,-17.997835],[-70.237642,-17.998228],[-70.237587,-17.99831],[-70.238511,-17.999038],[-70.239228,-17.999579],[-70.240169,-18.000296],[-70.240561,-18.00059],[-70.240896,-18.000838],[-70.241716,-18.001481],[-70.242535,-18.002129],[-70.24341,-18.002801],[-70.244,-18.002118],[-70.244252,-18.001753],[-70.244463,-18.001397],[-70.244719,-18.000831],[-70.244914,-18.000275],[-70.244916,-17.999987],[-70.244914,-17.999425],[-70.244905,-17.998646],[-70.244888,-17.997554],[-70.244889,-17.99634],[-70.244901,-17.995221],[-70.244909,-17.994394],[-70.244917,-17.994039],[-70.244903,-17.993712],[-70.244844,-17.993456],[-70.244795,-17.993268],[-70.244659,-17.993062],[-70.244537,-17.992955],[-70.244361,-17.992886],[-70.244132,-17.992723],[-70.244156,-17.992564],[-70.244205,-17.992409],[-70.243606,-17.991727],[-70.243181,-17.991285],[-70.242801,-17.990938],[-70.242484,-17.990656],[-70.242082,-17.990393],[-70.241629,-17.990097],[-70.241923,-17.989683],[-70.24089,-17.989019],[-70.239927,-17.988399],[-70.239066,-17.98784],[-70.23805,-17.987165],[-70.236884,-17.986381],[-70.236122,-17.985862],[-70.235174,-17.985218],[-70.234195,-17.984551],[-70.232898,-17.983673],[-70.232227,-17.983209],[-70.231253,-17.98254],[-70.230014,-17.981689],[-70.230629,-17.980813],[-70.231281,-17.979924],[-70.231651,-17.979385],[-70.231261,-17.979114],[-70.229983,-17.978244],[-70.228479,-17.977242],[-70.227491,-17.976589],[-70.226957,-17.976248],[-70.227605,-17.975361],[-70.228808,-17.973729],[-70.2293,-17.973057],[-70.230701,-17.973968],[-70.231335,-17.974394],[-70.232055,-17.974881],[-70.23274,-17.975327],[-70.233331,-17.975715],[-70.233862,-17.976062],[-70.234025,-17.976141],[-70.234604,-17.976534],[-70.23513,-17.976897],[-70.235786,-17.977353],[-70.236315,-17.977718],[-70.237218,-17.978332],[-70.23812,-17.978972],[-70.23819,-17.979059],[-70.237648,-17.979811],[-70.236989,-17.9807],[-70.235972,-17.982142],[-70.235902,-17.982254],[-70.23531,-17.983059],[-70.234221,-17.984535],[-70.23518,-17.985188],[-70.236115,-17.985822],[-70.237101,-17.986494],[-70.238064,-17.987138],[-70.239078,-17.987819],[-70.239936,-17.98837],[-70.24108,-17.989103],[-70.24196,-17.989672],[-70.24166,-17.990088],[-70.242052,-17.990353],[-70.242402,-17.99058],[-70.242536,-17.990669],[-70.243181,-17.991242],[-70.243818,-17.991919],[-70.244566,-17.992778],[-70.244748,-17.992995],[-70.244897,-17.99325],[-70.244961,-17.993407],[-70.245001,-17.993772],[-70.245036,-17.994234],[-70.245623,-17.994222],[-70.246913,-17.994221],[-70.248218,-17.994231],[-70.250092,-17.994241],[-70.250638,-17.994254],[-70.251184,-17.99429],[-70.251824,-17.994406],[-70.252353,-17.994556],[-70.253072,-17.994833],[-70.253348,-17.994966],[-70.253747,-17.995239],[-70.254279,-17.995631],[-70.255264,-17.996358],[-70.256111,-17.996986],[-70.257251,-17.997812],[-70.257798,-17.998185],[-70.258341,-17.998548],[-70.25949,-17.999376],[-70.261244,-18.000682],[-70.261749,-18.001045],[-70.262066,-18.001295],[-70.262335,-18.001458],[-70.262509,-18.001549],[-70.262884,-18.001627],[-70.263067,-18.001677],[-70.263143,-18.001806],[-70.263142,-18.001958],[-70.263032,-18.002068],[-70.262858,-18.002101],[-70.262675,-18.00203],[-70.262435,-18.002033],[-70.261504,-18.002233],[-70.260901,-18.002353],[-70.260302,-18.002598],[-70.259545,-18.002955],[-70.25912,-18.003169],[-70.258966,-18.003366],[-70.258985,-18.003422],[-70.25899,-18.003478],[-70.258979,-18.00354],[-70.258948,-18.003601],[-70.258897,-18.003655],[-70.258829,-18.003695],[-70.258755,-18.003696],[-70.258687,-18.003683],[-70.258625,-18.003657],[-70.258571,-18.003649],[-70.258464,-18.003674],[-70.258366,-18.003715],[-70.258199,-18.003868],[-70.257826,-18.004259],[-70.257603,-18.004497],[-70.257417,-18.004733],[-70.256827,-18.005474],[-70.25634,-18.006172],[-70.255877,-18.006886],[-70.255419,-18.007531],[-70.254831,-18.008362],[-70.253937,-18.007725],[-70.252754,-18.006917],[-70.251375,-18.005947],[-70.251287,-18.005985],[-70.25063,-18.006697],[-70.249826,-18.007533],[-70.24933,-18.008026],[-70.248943,-18.008485],[-70.248541,-18.009],[-70.248069,-18.009624],[-70.247398,-18.010529],[-70.24706,-18.010967],[-70.246723,-18.011462],[-70.246464,-18.011795],[-70.247066,-18.012271],[-70.247645,-18.012722],[-70.248118,-18.013091],[-70.249337,-18.014091],[-70.249898,-18.014476],[-70.250947,-18.015197],[-70.25137,-18.01547],[-70.251795,-18.015744],[-70.252059,-18.015834],[-70.252604,-18.016052],[-70.252897,-18.016216],[-70.253162,-18.016407],[-70.253635,-18.016744],[-70.254219,-18.017167],[-70.254024,-18.017441],[-70.253683,-18.017193],[-70.253427,-18.017003],[-70.253354,-18.017007],[-70.253333,-18.017458],[-70.253323,-18.017591],[-70.253258,-18.017722],[-70.253225,-18.018461],[-70.253186,-18.019126],[-70.253154,-18.019795],[-70.253124,-18.02023],[-70.253054,-18.020754],[-70.252941,-18.021216],[-70.252712,-18.021991],[-70.252483,-18.022644],[-70.252211,-18.023425],[-70.251904,-18.02435],[-70.251479,-18.025637],[-70.251321,-18.026197],[-70.251183,-18.026767],[-70.251154,-18.026957],[-70.251159,-18.027056],[-70.25118,-18.027151],[-70.25122,-18.027248],[-70.251286,-18.027351],[-70.251464,-18.027536],[-70.25151,-18.027606],[-70.251541,-18.027697],[-70.251552,-18.027775],[-70.251547,-18.027865],[-70.251539,-18.0279],[-70.251526,-18.027937],[-70.251512,-18.027975],[-70.251478,-18.028033],[-70.251429,-18.028093],[-70.251353,-18.028156],[-70.251305,-18.028186],[-70.251257,-18.028217],[-70.25121,-18.02828],[-70.25117,-18.028392],[-70.251208,-18.029286],[-70.25125,-18.030278],[-70.251296,-18.031365],[-70.251333,-18.032204],[-70.251364,-18.032952],[-70.251416,-18.033949],[-70.251466,-18.034812],[-70.251535,-18.035206],[-70.251622,-18.036509],[-70.251634,-18.036969],[-70.251655,-18.037513],[-70.251663,-18.037741],[-70.252337,-18.037712],[-70.253427,-18.037662],[-70.254598,-18.037609],[-70.255378,-18.037563],[-70.256009,-18.037516],[-70.256046,-18.038264],[-70.256129,-18.039782],[-70.256158,-18.040749],[-70.256204,-18.041682],[-70.256234,-18.042318],[-70.256248,-18.042811],[-70.256275,-18.043511],[-70.256296,-18.043995],[-70.256326,-18.044563],[-70.256349,-18.045148],[-70.256387,-18.045932],[-70.256416,-18.046549],[-70.256472,-18.047482],[-70.256497,-18.047947],[-70.256521,-18.048508],[-70.256533,-18.04886],[-70.256547,-18.049096],[-70.256553,-18.04969],[-70.256577,-18.0498],[-70.256618,-18.0499],[-70.2567,-18.049985],[-70.256799,-18.050052],[-70.256849,-18.05006],[-70.256898,-18.050073],[-70.256946,-18.050094],[-70.256985,-18.050122],[-70.257015,-18.050149],[-70.257042,-18.050182],[-70.257065,-18.050222],[-70.257082,-18.050263],[-70.25709,-18.050334],[-70.257084,-18.050403],[-70.257057,-18.050458],[-70.257015,-18.05051],[-70.256954,-18.050556],[-70.256896,-18.050578],[-70.256848,-18.050587],[-70.256789,-18.050592],[-70.256727,-18.05058],[-70.256676,-18.050562],[-70.256634,-18.050536],[-70.256596,-18.05049],[-70.256568,-18.05044],[-70.256545,-18.050404],[-70.256518,-18.050383],[-70.256491,-18.050375],[-70.256433,-18.050367],[-70.255818,-18.050392],[-70.255073,-18.050426],[-70.254119,-18.050464],[-70.253699,-18.050489],[-70.252992,-18.050524],[-70.252281,-18.050562],[-70.251757,-18.050599],[-70.251432,-18.050612],[-70.251443,-18.050952],[-70.251471,-18.051578],[-70.251494,-18.051944],[-70.251523,-18.052499],[-70.251555,-18.053157],[-70.251587,-18.053638],[-70.251608,-18.054023],[-70.251639,-18.054647],[-70.251667,-18.055268],[-70.251699,-18.055857],[-70.251719,-18.056292],[-70.251766,-18.057225],[-70.251788,-18.057764],[-70.251802,-18.058299],[-70.251826,-18.058879],[-70.251848,-18.059298],[-70.25187,-18.059861],[-70.251892,-18.060375],[-70.251915,-18.060828],[-70.25197,-18.061912],[-70.251995,-18.062586],[-70.25202,-18.0631],[-70.252043,-18.063588],[-70.252163,-18.063611],[-70.252279,-18.063649],[-70.252378,-18.063702],[-70.25248,-18.063778],[-70.252548,-18.063865],[-70.252613,-18.06398],[-70.252642,-18.06411],[-70.252644,-18.064241],[-70.252614,-18.064398],[-70.252548,-18.064519],[-70.252463,-18.064628],[-70.252407,-18.064676],[-70.252344,-18.064718],[-70.252189,-18.064796],[-70.252166,-18.064949],[-70.252158,-18.065071],[-70.252073,-18.065914],[-70.252032,-18.06638],[-70.251972,-18.066962],[-70.251915,-18.067599],[-70.251812,-18.068642],[-70.251751,-18.069233],[-70.251704,-18.069728],[-70.251664,-18.070161],[-70.251616,-18.070638],[-70.251587,-18.07103],[-70.251487,-18.071966],[-70.251423,-18.072709],[-70.251377,-18.073222],[-70.251301,-18.073979],[-70.251243,-18.074581],[-70.251201,-18.075151],[-70.251113,-18.075894],[-70.251053,-18.076506],[-70.250985,-18.077286],[-70.250824,-18.077555],[-70.25065,-18.077819]]}},
{"type":"Feature","properties":{"ruta_id":"Ruta 101","sentido":null},"geometry":{"type":"LineString","coordinates":[[-70.280125,-18.088017],[-70.278953,-18.084561],[-70.277589,-18.080525],[-70.276402,-18.077009],[-70.275146,-18.073288],[-70.274239,-18.070602],[-70.274106,-18.070149],[-70.273997,-18.069788],[-70.273938,-18.069586],[-70.273709,-18.068906],[-70.273568,-18.068434],[-70.273067,-18.068547],[-70.272564,-18.068646],[-70.272238,-18.067584],[-70.271909,-18.066634],[-70.271397,-18.065137],[-70.271002,-18.063968],[-70.270955,-18.06389],[-70.270912,-18.06384],[-70.270828,-18.063737],[-70.270718,-18.063424],[-70.270548,-18.062964],[-70.269936,-18.061139],[-70.269598,-18.060089],[-70.26937,-18.059441],[-70.269242,-18.059048],[-70.268906,-18.058014],[-70.268387,-18.058171],[-70.268091,-18.057257],[-70.267793,-18.056334],[-70.267448,-18.055413],[-70.267309,-18.055041],[-70.267166,-18.054587],[-70.266848,-18.053626],[-70.266508,-18.0526],[-70.266151,-18.051512],[-70.265853,-18.050612],[-70.265375,-18.05075],[-70.265012,-18.050929],[-70.264727,-18.051102],[-70.264659,-18.051148],[-70.264542,-18.051187],[-70.264427,-18.051193],[-70.263868,-18.051122],[-70.261462,-18.050839],[-70.259815,-18.05067],[-70.258841,-18.050566],[-70.257778,-18.050455],[-70.257233,-18.050403],[-70.257122,-18.050386],[-70.25709,-18.050397],[-70.257071,-18.050442],[-70.257035,-18.050496],[-70.256993,-18.050537],[-70.256944,-18.050568],[-70.256881,-18.050591],[-70.256802,-18.050601],[-70.256716,-18.050581],[-70.256641,-18.050535],[-70.256585,-18.050474],[-70.256548,-18.050419],[-70.256529,-18.0504],[-70.256501,-18.050382],[-70.256469,-18.050373],[-70.256452,-18.049976],[-70.256447,-18.049671],[-70.256279,-18.046257],[-70.256206,-18.044731],[-70.25619,-18.044269],[-70.256157,-18.043446],[-70.256109,-18.042302],[-70.25606,-18.041343],[-70.256023,-18.040505],[-70.255983,-18.03962],[-70.255945,-18.038652],[-70.255917,-18.03811],[-70.255894,-18.037548],[-70.253631,-18.037656],[-70.25165,-18.03776],[-70.251507,-18.037751],[-70.251409,-18.037719],[-70.251317,-18.03551],[-70.251272,-18.034597],[-70.251231,-18.033689],[-70.251161,-18.032496],[-70.251066,-18.030131],[-70.251004,-18.02876],[-70.25099,-18.028383],[-70.250978,-18.028328],[-70.250958,-18.028277],[-70.25092,-18.028232],[-70.250877,-18.028193],[-70.250768,-18.028118],[-70.250714,-18.028069],[-70.250664,-18.028007],[-70.250632,-18.02791],[-70.250612,-18.027807],[-70.250612,-18.027729],[-70.25063,-18.027653],[-70.250651,-18.027603],[-70.25068,-18.027553],[-70.250748,-18.027463],[-70.250812,-18.027413],[-70.250884,-18.027373],[-70.250936,-18.027322],[-70.250976,-18.027264],[-70.251036,-18.027071],[-70.251239,-18.026199],[-70.251461,-18.02544],[-70.25164,-18.024976],[-70.251692,-18.024846],[-70.252049,-18.023797],[-70.252351,-18.022903],[-70.25268,-18.021979],[-70.252913,-18.021176],[-70.252981,-18.020912],[-70.253029,-18.020687],[-70.25306,-18.020475],[-70.253085,-18.020291],[-70.253105,-18.019967],[-70.253124,-18.019631],[-70.253161,-18.018961],[-70.253178,-18.018509],[-70.253207,-18.01794],[-70.253233,-18.017378],[-70.253259,-18.016941],[-70.253026,-18.016855],[-70.252582,-18.016729],[-70.252277,-18.016649],[-70.252004,-18.016513],[-70.251735,-18.016311],[-70.251577,-18.016199],[-70.251485,-18.016113],[-70.251872,-18.015679],[-70.252028,-18.015553],[-70.252599,-18.015995],[-70.253271,-18.016481],[-70.253404,-18.016583],[-70.253893,-18.01693],[-70.25424,-18.01718],[-70.254935,-18.017689],[-70.255302,-18.017968],[-70.255795,-18.018335],[-70.2561,-18.018564],[-70.256376,-18.018772],[-70.256472,-18.018824],[-70.256546,-18.018769],[-70.25665,-18.018735],[-70.256767,-18.018735],[-70.256869,-18.018781],[-70.25699,-18.018663],[-70.25755,-18.018071],[-70.258016,-18.017581],[-70.258673,-18.016854],[-70.259069,-18.016405],[-70.259705,-18.015541],[-70.260185,-18.014899],[-70.260339,-18.014671],[-70.259405,-18.012796],[-70.258571,-18.011083],[-70.258244,-18.010506],[-70.257898,-18.0099],[-70.257691,-18.009461],[-70.257598,-18.009161],[-70.257492,-18.008518],[-70.257393,-18.007881],[-70.25726,-18.007124],[-70.257226,-18.006873],[-70.257178,-18.006751],[-70.257074,-18.006636],[-70.256733,-18.006274],[-70.256461,-18.005994],[-70.256407,-18.005869],[-70.256771,-18.005403],[-70.257234,-18.004782],[-70.257636,-18.004317],[-70.258149,-18.003751],[-70.258634,-18.003288],[-70.258771,-18.003213],[-70.259259,-18.002915],[-70.259588,-18.002687],[-70.259738,-18.002564],[-70.259873,-18.002424],[-70.259974,-18.002246],[-70.260021,-18.002089],[-70.260037,-18.001784],[-70.260068,-18.001366],[-70.260095,-18.000984],[-70.260157,-18.000835],[-70.260303,-18.00064],[-70.260441,-18.00053],[-70.260531,-18.000413],[-70.260547,-18.000306],[-70.260533,-18.000239],[-70.26037,-18.000115],[-70.25998,-17.999835],[-70.259589,-17.999545],[-70.258907,-17.99905],[-70.258444,-17.998716],[-70.258117,-17.9985],[-70.257607,-17.998221],[-70.256358,-17.997321],[-70.255606,-17.996762],[-70.254825,-17.99619],[-70.253914,-17.99553],[-70.253288,-17.995105],[-70.252891,-17.99492],[-70.252194,-17.994647],[-70.25179,-17.994536],[-70.251449,-17.994469],[-70.251206,-17.994442],[-70.248839,-17.994437],[-70.246754,-17.994415],[-70.245529,-17.994409],[-70.245037,-17.994415],[-70.245033,-17.995555],[-70.245006,-17.996763],[-70.245,-17.99781],[-70.244999,-17.998978],[-70.245003,-17.9999],[-70.245007,-18.000164],[-70.244983,-18.000313],[-70.244902,-18.000574],[-70.2448,-18.00085],[-70.244552,-18.00145],[-70.244283,-18.00189],[-70.243892,-18.002396],[-70.243341,-18.003043],[-70.242918,-18.003551],[-70.241835,-18.004738],[-70.241501,-18.005097],[-70.242344,-18.005462],[-70.243049,-18.005721],[-70.244184,-18.006063],[-70.245566,-18.00647],[-70.245776,-18.00652],[-70.245916,-18.0065],[-70.246034,-18.006423],[-70.246139,-18.00635],[-70.246211,-18.006327],[-70.246292,-18.006323],[-70.246366,-18.006342],[-70.246434,-18.006372],[-70.246741,-18.00641],[-70.247623,-18.007102],[-70.248203,-18.006441],[-70.248927,-18.005523],[-70.249915,-18.006216],[-70.25063,-18.006708],[-70.249709,-18.007633],[-70.249283,-18.008084],[-70.248927,-18.008515],[-70.249618,-18.009079],[-70.249492,-18.009198],[-70.24915,-18.009678],[-70.250894,-18.010814],[-70.251598,-18.011281],[-70.252055,-18.011579],[-70.252916,-18.012152],[-70.253339,-18.012439],[-70.254046,-18.012897],[-70.254748,-18.013371],[-70.255896,-18.014115],[-70.256372,-18.014428],[-70.256731,-18.014657],[-70.256994,-18.014852],[-70.2575,-18.015268],[-70.258006,-18.015654],[-70.258354,-18.015923],[-70.25863,-18.016159],[-70.259022,-18.016505],[-70.258691,-18.016877],[-70.258234,-18.01739],[-70.257819,-18.017834],[-70.257572,-18.018093],[-70.257241,-18.01844],[-70.256892,-18.018803],[-70.256958,-18.018889],[-70.256981,-18.018937],[-70.256994,-18.018992],[-70.256995,-18.019049],[-70.256988,-18.019111],[-70.256957,-18.019176],[-70.256915,-18.019236],[-70.256856,-18.019277],[-70.256791,-18.019308],[-70.256738,-18.019317],[-70.256685,-18.019318],[-70.256583,-18.019298],[-70.256476,-18.019233],[-70.25631,-18.0191],[-70.254674,-18.01791],[-70.254342,-18.017665],[-70.253827,-18.017295],[-70.253417,-18.017012],[-70.253377,-18.017004],[-70.25335,-18.017013],[-70.253331,-18.017554],[-70.253256,-18.017646],[-70.253243,-18.017941],[-70.25322,-18.018547],[-70.253193,-18.018955],[-70.253163,-18.01962],[-70.25314,-18.019966],[-70.253115,-18.020299],[-70.253098,-18.020479],[-70.253063,-18.020691],[-70.253019,-18.020921],[-70.252945,-18.021186],[-70.252771,-18.021785],[-70.252618,-18.022239],[-70.252518,-18.022536],[-70.252383,-18.022918],[-70.252179,-18.02352],[-70.251928,-18.024269],[-70.251728,-18.024854],[-70.251602,-18.025267],[-70.251438,-18.025743],[-70.251327,-18.026167],[-70.251166,-18.026786],[-70.251147,-18.027064],[-70.251164,-18.027138],[-70.251197,-18.027222],[-70.251251,-18.027305],[-70.251312,-18.027384],[-70.251372,-18.027434],[-70.251427,-18.027485],[-70.251473,-18.027536],[-70.251505,-18.027587],[-70.251545,-18.027697],[-70.251557,-18.027788],[-70.251548,-18.027876],[-70.251515,-18.02796],[-70.251469,-18.028039],[-70.251388,-18.02812],[-70.251302,-18.028188],[-70.251253,-18.028228],[-70.251213,-18.02828],[-70.251187,-18.02833],[-70.251172,-18.028391],[-70.251192,-18.028787],[-70.25121,-18.029306],[-70.251287,-18.031409],[-70.251317,-18.032021],[-70.251347,-18.032565],[-70.251368,-18.033185],[-70.251437,-18.034518],[-70.251466,-18.034854],[-70.251537,-18.03517],[-70.251584,-18.035854],[-70.251621,-18.036748],[-70.25168,-18.038164],[-70.251702,-18.038514],[-70.251741,-18.039252],[-70.251757,-18.039706],[-70.251775,-18.040158],[-70.251792,-18.040666],[-70.251791,-18.040922],[-70.251764,-18.041571],[-70.251743,-18.041828],[-70.251697,-18.042132],[-70.25161,-18.042582],[-70.251533,-18.042963],[-70.251466,-18.043186],[-70.251327,-18.043553],[-70.25113,-18.044048],[-70.25085,-18.044552],[-70.252379,-18.044489],[-70.254398,-18.044419],[-70.255677,-18.044371],[-70.256316,-18.044343],[-70.256377,-18.045783],[-70.256432,-18.046838],[-70.256476,-18.047569],[-70.256496,-18.048113],[-70.25653,-18.048782],[-70.256546,-18.04922],[-70.256545,-18.049581],[-70.256559,-18.049767],[-70.256632,-18.049929],[-70.2567,-18.04999],[-70.256784,-18.050043],[-70.256862,-18.050056],[-70.256917,-18.050075],[-70.25698,-18.050112],[-70.257034,-18.050163],[-70.25706,-18.050199],[-70.257078,-18.050244],[-70.257095,-18.050346],[-70.257255,-18.050372],[-70.25823,-18.050473],[-70.259157,-18.050568],[-70.259818,-18.050639],[-70.260969,-18.05076],[-70.261684,-18.050834],[-70.263012,-18.050991],[-70.263918,-18.051095],[-70.264304,-18.051148],[-70.264427,-18.051172],[-70.264538,-18.051166],[-70.264652,-18.051125],[-70.264714,-18.051087],[-70.264758,-18.051057],[-70.265022,-18.050903],[-70.265367,-18.050734],[-70.265596,-18.050668],[-70.265871,-18.050587],[-70.266171,-18.051505],[-70.266369,-18.052103],[-70.266742,-18.053222],[-70.266885,-18.053658],[-70.267192,-18.05458],[-70.267303,-18.054953],[-70.267474,-18.055413],[-70.267707,-18.056046],[-70.267811,-18.056319],[-70.267952,-18.056761],[-70.268148,-18.057353],[-70.268249,-18.057673],[-70.268403,-18.05815],[-70.26892,-18.057985],[-70.269085,-18.058512],[-70.26926,-18.059033],[-70.269391,-18.059434],[-70.269609,-18.060029],[-70.269953,-18.061125],[-70.270393,-18.062443],[-70.27057,-18.062957],[-70.270845,-18.063724],[-70.27092,-18.06382],[-70.270977,-18.06388],[-70.27103,-18.063977],[-70.271357,-18.064947],[-70.271676,-18.065879],[-70.271827,-18.066324],[-70.27193,-18.066625],[-70.272085,-18.067068],[-70.27228,-18.067656],[-70.272456,-18.068211],[-70.272586,-18.068623],[-70.273075,-18.068526],[-70.273586,-18.068411],[-70.273731,-18.068899],[-70.273958,-18.069584],[-70.274017,-18.069781],[-70.274259,-18.070592],[-70.274587,-18.071574],[-70.27508,-18.073031],[-70.275403,-18.073986],[-70.275699,-18.074857],[-70.27605,-18.075897],[-70.276419,-18.076993],[-70.276616,-18.077575],[-70.277025,-18.078784],[-70.277703,-18.080792],[-70.277999,-18.081671],[-70.278337,-18.082667],[-70.278668,-18.083643],[-70.279278,-18.085449],[-70.279566,-18.086296],[-70.279821,-18.087056],[-70.280069,-18.087784],[-70.280148,-18.088012]]}},
{"type":"Feature","properties":{"ruta_id":"Ruta 102","sentido":null},"geometry":{"type":"LineString","coordinates":[[-70.218884,-17.971672],[-70.218307,-17.972205],[-70.218542,-17.972314],[-70.218682,-17.97238],[-70.218777,-17.972441],[-70.21947,-17.973138],[-70.220148,-17.973831],[-70.220482,-17.974181],[-70.220821,-17.974507],[-70.221257,-17.974109],[-70.221911,-17.974752],[-70.222411,-17.974289],[-70.222916,-17.97479],[-70.223206,-17.975057],[-70.223339,-17.975142],[-70.223457,-17.975208],[-70.223499,-17.975289],[-70.223705,-17.975836],[-70.223893,-17.976395],[-70.224312,-17.977548],[-70.225111,-17.977262],[-70.225199,-17.977237],[-70.225283,-17.977229],[-70.225368,-17.977251],[-70.225489,-17.977313],[-70.225339,-17.976935],[-70.225255,-17.976632],[-70.225255,-17.976593],[-70.225265,-17.976559],[-70.22529,-17.976529],[-70.225715,-17.975943],[-70.226024,-17.975523],[-70.227163,-17.976286],[-70.228079,-17.9769],[-70.228628,-17.97725],[-70.229586,-17.977892],[-70.230633,-17.978587],[-70.231709,-17.979315],[-70.232703,-17.979975],[-70.233579,-17.980561],[-70.234479,-17.981165],[-70.235499,-17.981843],[-70.236244,-17.982347],[-70.236937,-17.982806],[-70.237515,-17.983202],[-70.238511,-17.983867],[-70.2391,-17.984255],[-70.239788,-17.984721],[-70.240802,-17.985399],[-70.242046,-17.986209],[-70.242407,-17.986451],[-70.243657,-17.987268],[-70.244532,-17.987798],[-70.246004,-17.988562],[-70.246656,-17.988918],[-70.247087,-17.989204],[-70.247765,-17.989773],[-70.248449,-17.990381],[-70.248825,-17.990711],[-70.249223,-17.991057],[-70.249376,-17.991198],[-70.249507,-17.991344],[-70.249624,-17.991491],[-70.249804,-17.991789],[-70.250007,-17.992116],[-70.250587,-17.993047],[-70.251102,-17.993902],[-70.251342,-17.994324],[-70.252033,-17.994468],[-70.252362,-17.994569],[-70.25278,-17.994719],[-70.253054,-17.994833],[-70.253249,-17.994929],[-70.253459,-17.995051],[-70.253639,-17.995173],[-70.253842,-17.995311],[-70.254265,-17.995623],[-70.255276,-17.99637],[-70.256137,-17.997004],[-70.25736,-17.997895],[-70.258564,-17.998703],[-70.260111,-17.999852],[-70.261247,-18.000692],[-70.262069,-18.001288],[-70.262343,-18.00148],[-70.262437,-18.001526],[-70.26255,-18.001568],[-70.262762,-18.00162],[-70.262961,-18.001632],[-70.263047,-18.001665],[-70.263117,-18.001733],[-70.263139,-18.00179],[-70.263153,-18.001885],[-70.263131,-18.00196],[-70.263102,-18.002012],[-70.263035,-18.002061],[-70.262945,-18.002098],[-70.262859,-18.002101],[-70.262777,-18.002063],[-70.262663,-18.00203],[-70.262483,-18.002027],[-70.262297,-18.002054],[-70.262065,-18.00211],[-70.261015,-18.002323],[-70.260615,-18.002457],[-70.26019,-18.002645],[-70.259511,-18.002972],[-70.259147,-18.003158],[-70.259046,-18.003245],[-70.25897,-18.003365],[-70.258987,-18.00343],[-70.258992,-18.003501],[-70.258973,-18.003576],[-70.258911,-18.003639],[-70.258839,-18.00368],[-70.258744,-18.003693],[-70.258666,-18.003677],[-70.258589,-18.003656],[-70.258475,-18.003676],[-70.258365,-18.003716],[-70.258296,-18.003777],[-70.258162,-18.003908],[-70.257726,-18.004359],[-70.257547,-18.004585],[-70.25739,-18.004844],[-70.257259,-18.00517],[-70.257188,-18.005439],[-70.257167,-18.005584],[-70.257156,-18.00572],[-70.257157,-18.005835],[-70.257169,-18.005939],[-70.257196,-18.006077],[-70.257235,-18.006234],[-70.257278,-18.006253],[-70.257337,-18.006298],[-70.257377,-18.006355],[-70.257397,-18.006409],[-70.257401,-18.006458],[-70.257391,-18.006507],[-70.257375,-18.006551],[-70.257337,-18.006613],[-70.257317,-18.006722],[-70.257319,-18.00681],[-70.257473,-18.007689],[-70.257633,-18.008614],[-70.257699,-18.008996],[-70.257758,-18.009251],[-70.257798,-18.009383],[-70.257852,-18.009515],[-70.258038,-18.009885],[-70.258687,-18.011065],[-70.258562,-18.011079],[-70.258355,-18.011006],[-70.258235,-18.010946],[-70.258059,-18.01083],[-70.257844,-18.010698],[-70.257662,-18.010611],[-70.25737,-18.010535],[-70.257278,-18.010536],[-70.257116,-18.010657],[-70.257013,-18.010745],[-70.256186,-18.011445],[-70.255595,-18.011913],[-70.254836,-18.012517],[-70.254247,-18.013048],[-70.255223,-18.013683],[-70.256176,-18.014306],[-70.256968,-18.014838],[-70.257727,-18.015447],[-70.258636,-18.016151],[-70.259011,-18.016498],[-70.258022,-18.017595],[-70.256881,-18.018793],[-70.256925,-18.018836],[-70.256973,-18.018934],[-70.256997,-18.019039],[-70.256967,-18.01916],[-70.256914,-18.019227],[-70.256832,-18.019289],[-70.256729,-18.019317],[-70.256624,-18.01931],[-70.256556,-18.019285],[-70.256426,-18.019185],[-70.255649,-18.018622],[-70.254905,-18.018082],[-70.254008,-18.017424],[-70.253389,-18.016984],[-70.253039,-18.016854],[-70.252554,-18.016722],[-70.252239,-18.01663],[-70.25203,-18.016523],[-70.251589,-18.016204],[-70.251611,-18.016348],[-70.251198,-18.016842],[-70.250955,-18.017113],[-70.250764,-18.017315],[-70.250589,-18.017497],[-70.250503,-18.017607],[-70.250407,-18.017761],[-70.250304,-18.018009],[-70.250134,-18.018438],[-70.249959,-18.018921],[-70.249804,-18.019459],[-70.249687,-18.019812],[-70.249609,-18.020081],[-70.249556,-18.020348],[-70.249524,-18.020668],[-70.24951,-18.020987],[-70.249492,-18.021545],[-70.249476,-18.021808],[-70.249457,-18.021986],[-70.249503,-18.022151],[-70.249707,-18.022828],[-70.249739,-18.022908],[-70.249779,-18.022985],[-70.249871,-18.023126],[-70.250265,-18.023566],[-70.250324,-18.023643],[-70.250327,-18.023682],[-70.249026,-18.023153],[-70.247959,-18.022721],[-70.246979,-18.022332],[-70.246715,-18.022204],[-70.246278,-18.021903],[-70.245684,-18.021474],[-70.245189,-18.021134],[-70.244864,-18.020921],[-70.244373,-18.020586],[-70.244144,-18.020407],[-70.243928,-18.020186],[-70.243765,-18.019991],[-70.243588,-18.019758],[-70.243432,-18.019491],[-70.2433,-18.01928],[-70.242972,-18.018885],[-70.242548,-18.018442],[-70.242419,-18.018292],[-70.242306,-18.018067],[-70.242208,-18.017783],[-70.242115,-18.017434],[-70.24182,-18.016443],[-70.241485,-18.016797],[-70.24136,-18.016922],[-70.240845,-18.017449],[-70.240577,-18.017734],[-70.240499,-18.017848],[-70.240407,-18.017983],[-70.24026,-18.018228],[-70.240031,-18.018587],[-70.239653,-18.019233],[-70.239494,-18.019475],[-70.23916,-18.019876],[-70.238935,-18.020164],[-70.238341,-18.020899],[-70.237714,-18.021729],[-70.238257,-18.02212],[-70.239315,-18.022876],[-70.239582,-18.023072],[-70.239613,-18.023107],[-70.239635,-18.023147],[-70.23965,-18.02319],[-70.239657,-18.02324],[-70.239652,-18.023336],[-70.239561,-18.023827],[-70.241484,-18.025011],[-70.242171,-18.025423],[-70.240875,-18.027316],[-70.24036,-18.028055],[-70.241478,-18.029714],[-70.241656,-18.029913],[-70.241834,-18.030097],[-70.24455,-18.032604],[-70.246756,-18.032518],[-70.2468,-18.033922],[-70.246683,-18.034521],[-70.247302,-18.048001],[-70.244845,-18.048093],[-70.243097,-18.048172],[-70.242927,-18.044831],[-70.242929,-18.044597],[-70.242969,-18.044386],[-70.243019,-18.044222],[-70.244777,-18.04027],[-70.244832,-18.040155],[-70.24487,-18.040026],[-70.244912,-18.039824],[-70.244918,-18.039633],[-70.244918,-18.039312],[-70.244618,-18.03286],[-70.243044,-18.03142],[-70.241592,-18.03006],[-70.241306,-18.029708],[-70.241011,-18.029251],[-70.240264,-18.028156],[-70.240851,-18.027286],[-70.242126,-18.025433],[-70.241474,-18.025043],[-70.239539,-18.023849],[-70.239627,-18.023346],[-70.239639,-18.023256],[-70.239634,-18.023206],[-70.23962,-18.023161],[-70.239599,-18.023119],[-70.239568,-18.023083],[-70.239433,-18.022988],[-70.239303,-18.022891],[-70.238251,-18.02214],[-70.237675,-18.021724],[-70.238315,-18.020883],[-70.238906,-18.020156],[-70.239463,-18.019462],[-70.23963,-18.019215],[-70.240001,-18.018574],[-70.240226,-18.018212],[-70.24038,-18.017968],[-70.240465,-18.017844],[-70.24055,-18.017726],[-70.240692,-18.017564],[-70.240922,-18.017321],[-70.241425,-18.016814],[-70.241788,-18.016435],[-70.242051,-18.016205],[-70.242474,-18.015813],[-70.242766,-18.015535],[-70.243088,-18.015162],[-70.243368,-18.014813],[-70.243589,-18.014575],[-70.24373,-18.014439],[-70.243865,-18.014336],[-70.244116,-18.014212],[-70.244722,-18.013921],[-70.245085,-18.013756],[-70.245651,-18.013507],[-70.245418,-18.01286],[-70.2454,-18.012783],[-70.245403,-18.012703],[-70.245441,-18.012612],[-70.245526,-18.01246],[-70.245655,-18.012255],[-70.245469,-18.012099],[-70.245384,-18.011997],[-70.245792,-18.011548],[-70.245228,-18.011108],[-70.245378,-18.010899],[-70.245499,-18.010746],[-70.245582,-18.010637],[-70.245754,-18.010332],[-70.245818,-18.010137],[-70.246383,-18.009154],[-70.246928,-18.008185],[-70.247343,-18.007459],[-70.247454,-18.007256],[-70.247617,-18.007106],[-70.247933,-18.006758],[-70.248199,-18.006447],[-70.24861,-18.00592],[-70.24893,-18.005521],[-70.249372,-18.005828],[-70.250623,-18.006704],[-70.249787,-18.007557],[-70.24929,-18.008059],[-70.248082,-18.007571],[-70.247484,-18.007286],[-70.24713,-18.007037],[-70.246899,-18.006904],[-70.246655,-18.006794],[-70.246488,-18.00675],[-70.24645,-18.006786],[-70.246407,-18.006819],[-70.246324,-18.00684],[-70.24624,-18.006842],[-70.246169,-18.006827],[-70.246104,-18.0068],[-70.246041,-18.00675],[-70.243289,-18.006145],[-70.24272,-18.006014],[-70.242393,-18.00594],[-70.242118,-18.005847],[-70.241857,-18.005738],[-70.241674,-18.005642],[-70.241473,-18.005526],[-70.241096,-18.005315],[-70.240921,-18.005189],[-70.240365,-18.004786],[-70.240056,-18.004553],[-70.240207,-18.004369],[-70.240685,-18.004728],[-70.240989,-18.004903],[-70.241407,-18.005067],[-70.242875,-18.003468],[-70.243116,-18.003142],[-70.243805,-18.00236],[-70.244182,-18.001848],[-70.244409,-18.001508],[-70.244475,-18.001383],[-70.244594,-18.001112],[-70.244785,-18.000654],[-70.244884,-18.000379],[-70.244909,-18.000265],[-70.244918,-18.000083],[-70.244892,-17.997456],[-70.244882,-17.997185],[-70.244915,-17.994449],[-70.244922,-17.994034],[-70.244892,-17.993648],[-70.244864,-17.993544],[-70.244819,-17.993332],[-70.24472,-17.993145],[-70.244624,-17.993024],[-70.244539,-17.992962],[-70.244455,-17.992919],[-70.244366,-17.992909],[-70.243739,-17.99289],[-70.243627,-17.992868],[-70.243477,-17.992806],[-70.24233,-17.992002],[-70.241483,-17.991389],[-70.240988,-17.991024],[-70.240166,-17.990432],[-70.239031,-17.98961],[-70.238191,-17.988957],[-70.23725,-17.988281],[-70.238056,-17.987156],[-70.238675,-17.986289],[-70.239132,-17.985647],[-70.239729,-17.98482],[-70.235903,-17.982243],[-70.233943,-17.980915],[-70.232801,-17.980133],[-70.231669,-17.979384],[-70.230469,-17.978562],[-70.229613,-17.977989],[-70.22852,-17.977276],[-70.22763,-17.976674],[-70.226449,-17.975907],[-70.225996,-17.975602],[-70.225729,-17.975951],[-70.225299,-17.976542],[-70.225283,-17.976566],[-70.225273,-17.976592],[-70.225275,-17.976643],[-70.225364,-17.976944],[-70.225513,-17.977328],[-70.225497,-17.977348],[-70.22538,-17.977285],[-70.225333,-17.977267],[-70.225286,-17.977258],[-70.225209,-17.977264],[-70.225131,-17.977286],[-70.224296,-17.977587],[-70.223861,-17.976409],[-70.223675,-17.975839],[-70.223478,-17.975303],[-70.223433,-17.975228],[-70.223324,-17.97517],[-70.223162,-17.975089],[-70.222962,-17.97497],[-70.222682,-17.97469],[-70.222368,-17.974353],[-70.221915,-17.974779],[-70.221257,-17.974137],[-70.220777,-17.974577],[-70.220438,-17.974224],[-70.220093,-17.973881],[-70.219414,-17.973184],[-70.218714,-17.972477],[-70.218641,-17.972428],[-70.218481,-17.972358],[-70.218233,-17.972249],[-70.218872,-17.97166]]}},
{"type":"Feature","properties":{"ruta_id":"Ruta 202","sentido":null},"geometry":{"type":"LineString","coordinates":[[-70.229562,-18.05425],[-70.230041,-18.054257],[-70.230218,-18.054246],[-70.230358,-18.054222],[-70.230534,-18.054171],[-70.232478,-18.05409],[-70.233961,-18.05405],[-70.234445,-18.053995],[-70.234702,-18.05398],[-70.234975,-18.053986],[-70.238919,-18.053823],[-70.238864,-18.05264],[-70.238858,-18.052503],[-70.238862,-18.052432],[-70.238876,-18.052366],[-70.238924,-18.052253],[-70.238968,-18.052167],[-70.239035,-18.052117],[-70.239448,-18.051035],[-70.239567,-18.050996],[-70.240053,-18.051001],[-70.243243,-18.050857],[-70.242929,-18.044836],[-70.242931,-18.044607],[-70.242954,-18.044466],[-70.242997,-18.044312],[-70.243053,-18.044149],[-70.244754,-18.040324],[-70.244821,-18.040174],[-70.244872,-18.040015],[-70.244904,-18.039858],[-70.244914,-18.039708],[-70.244915,-18.039313],[-70.244664,-18.033994],[-70.248579,-18.033846],[-70.248938,-18.034124],[-70.249275,-18.034412],[-70.249365,-18.034388],[-70.250381,-18.033375],[-70.250886,-18.032803],[-70.251034,-18.032619],[-70.251105,-18.032559],[-70.251165,-18.032488],[-70.250995,-18.028414],[-70.250974,-18.028322],[-70.250954,-18.028267],[-70.250908,-18.028205],[-70.250832,-18.028167],[-70.25075,-18.028106],[-70.250682,-18.028022],[-70.250626,-18.027902],[-70.250613,-18.027814],[-70.25062,-18.027717],[-70.250666,-18.027572],[-70.250734,-18.027493],[-70.25082,-18.027419],[-70.2509,-18.027379],[-70.250968,-18.027281],[-70.251008,-18.027183],[-70.251183,-18.026451],[-70.251353,-18.025762],[-70.251628,-18.025003],[-70.251693,-18.024838],[-70.251878,-18.024295],[-70.252281,-18.023104],[-70.252688,-18.021949],[-70.252912,-18.02119],[-70.253004,-18.0208],[-70.253042,-18.02064],[-70.253078,-18.020419],[-70.253103,-18.020182],[-70.253155,-18.019108],[-70.25319,-18.018344],[-70.253254,-18.016929],[-70.252999,-18.016845],[-70.252711,-18.016769],[-70.252311,-18.016658],[-70.252156,-18.016588],[-70.252029,-18.01652],[-70.251746,-18.016316],[-70.251485,-18.016107],[-70.251798,-18.015744],[-70.252026,-18.015551],[-70.252688,-18.01607],[-70.253276,-18.016485],[-70.254171,-18.017137],[-70.255298,-18.017975],[-70.256381,-18.01878],[-70.256482,-18.01882],[-70.256546,-18.018773],[-70.256627,-18.018748],[-70.256706,-18.018742],[-70.256804,-18.018756],[-70.256873,-18.018791],[-70.257617,-18.018025],[-70.258352,-18.017234],[-70.259005,-18.016497],[-70.259552,-18.015763],[-70.260198,-18.014879],[-70.260343,-18.014666],[-70.259503,-18.012982],[-70.258929,-18.011831],[-70.258574,-18.011087],[-70.258322,-18.010996],[-70.258159,-18.010899],[-70.257846,-18.010697],[-70.257673,-18.010619],[-70.25747,-18.010554],[-70.257327,-18.010534],[-70.25726,-18.010552],[-70.257113,-18.010657],[-70.256566,-18.011129],[-70.256003,-18.011592],[-70.255795,-18.011468],[-70.254268,-18.010617],[-70.253436,-18.010143],[-70.252717,-18.009709],[-70.252653,-18.009802],[-70.251932,-18.009392],[-70.251219,-18.008957],[-70.25212,-18.007682],[-70.252748,-18.006919],[-70.253287,-18.006316],[-70.25353,-18.005945],[-70.253765,-18.005629],[-70.253897,-18.005714],[-70.25439,-18.006103],[-70.255657,-18.006945],[-70.256398,-18.005887],[-70.257115,-18.004933],[-70.257417,-18.004569],[-70.258036,-18.003867],[-70.258183,-18.003721],[-70.258629,-18.003296],[-70.258819,-18.003183],[-70.25917,-18.002974],[-70.259516,-18.002741],[-70.259707,-18.002602],[-70.259822,-18.002482],[-70.259918,-18.002357],[-70.259984,-18.002224],[-70.260009,-18.002126],[-70.260064,-18.001249],[-70.260104,-18.00097],[-70.260167,-18.000817],[-70.260271,-18.000679],[-70.260469,-18.000509],[-70.260519,-18.000442],[-70.260541,-18.000381],[-70.26055,-18.000333],[-70.26055,-18.000285],[-70.260542,-18.000254],[-70.260504,-18.000217],[-70.258231,-17.998564],[-70.257624,-17.998235],[-70.256427,-17.997374],[-70.253886,-17.995505],[-70.253636,-17.995338],[-70.253313,-17.995129],[-70.252888,-17.99492],[-70.252123,-17.994624],[-70.252134,-17.993792],[-70.252001,-17.99374],[-70.251841,-17.99363],[-70.251749,-17.993512],[-70.251312,-17.992397],[-70.250862,-17.991385],[-70.250664,-17.991055],[-70.250418,-17.990694],[-70.250028,-17.990112],[-70.249621,-17.989504],[-70.248962,-17.988554],[-70.248855,-17.988418],[-70.248616,-17.987993],[-70.248215,-17.987284],[-70.248121,-17.987173],[-70.247981,-17.987109],[-70.24781,-17.987045],[-70.247692,-17.986957],[-70.247535,-17.986807],[-70.246379,-17.985538],[-70.245084,-17.98413],[-70.244738,-17.983728],[-70.244326,-17.983302],[-70.243657,-17.982544],[-70.243602,-17.982508],[-70.243557,-17.982495],[-70.243514,-17.982498],[-70.243467,-17.98253],[-70.243207,-17.982758],[-70.243142,-17.98278],[-70.243062,-17.98279],[-70.242969,-17.98279],[-70.242755,-17.982617],[-70.242403,-17.982444],[-70.242007,-17.982319],[-70.241609,-17.982168],[-70.241077,-17.981843],[-70.240625,-17.981532],[-70.240467,-17.981403],[-70.239899,-17.980604],[-70.239805,-17.980464],[-70.239619,-17.980264],[-70.239099,-17.979718],[-70.238169,-17.979057],[-70.238094,-17.97907],[-70.237188,-17.978447],[-70.234753,-17.976775],[-70.233989,-17.976219],[-70.233779,-17.976034],[-70.229293,-17.97308],[-70.228135,-17.974654],[-70.227015,-17.976184],[-70.228574,-17.977207],[-70.23075,-17.978669],[-70.233569,-17.98055],[-70.234964,-17.981485],[-70.234082,-17.982714],[-70.235081,-17.983387],[-70.234222,-17.984535],[-70.237068,-17.986474],[-70.239054,-17.987816],[-70.240736,-17.988894],[-70.242798,-17.99026],[-70.242512,-17.990647],[-70.2431,-17.991178],[-70.243338,-17.991414],[-70.243771,-17.991873],[-70.244217,-17.992389],[-70.244547,-17.992751],[-70.244747,-17.992985],[-70.244802,-17.993074],[-70.244894,-17.993232],[-70.244966,-17.99344],[-70.244998,-17.993773],[-70.245031,-17.994248],[-70.245028,-17.995558],[-70.244999,-17.997316],[-70.244996,-17.999281],[-70.245001,-17.99992],[-70.24501,-18.000202],[-70.244935,-18.000481],[-70.24477,-18.000925],[-70.244649,-18.001226],[-70.244547,-18.001458],[-70.244379,-18.001739],[-70.244262,-18.001905],[-70.244059,-18.002179],[-70.243851,-18.002444],[-70.243498,-18.002868],[-70.242947,-18.00352],[-70.242267,-18.004262],[-70.241498,-18.005096],[-70.242104,-18.005361],[-70.242725,-18.005604],[-70.243145,-18.005744],[-70.243961,-18.005997],[-70.245596,-18.006483],[-70.245753,-18.006518],[-70.245817,-18.006517],[-70.24588,-18.006509],[-70.24596,-18.006482],[-70.246027,-18.006439],[-70.246101,-18.006373],[-70.246176,-18.006334],[-70.246287,-18.00632],[-70.246378,-18.006339],[-70.246468,-18.006382],[-70.246737,-18.006414],[-70.247621,-18.007094],[-70.248192,-18.006447],[-70.248929,-18.005523],[-70.250621,-18.006702],[-70.249345,-18.008007],[-70.248956,-18.008458],[-70.24841,-18.009173],[-70.247429,-18.010496],[-70.247064,-18.010974],[-70.246728,-18.01146],[-70.24646,-18.011799],[-70.246313,-18.011963],[-70.245912,-18.012471],[-70.24547,-18.012983],[-70.245652,-18.013506],[-70.24443,-18.014048],[-70.244097,-18.014222],[-70.243873,-18.014332],[-70.243701,-18.014453],[-70.243562,-18.014602],[-70.242867,-18.015435],[-70.242276,-18.016013],[-70.241817,-18.016432],[-70.242001,-18.017022],[-70.242267,-18.017975],[-70.242328,-18.018129],[-70.242444,-18.018323],[-70.242787,-18.018695],[-70.243028,-18.018937],[-70.24331,-18.01929],[-70.243429,-18.019473],[-70.243662,-18.019862],[-70.243887,-18.02014],[-70.244149,-18.020398],[-70.244383,-18.020589],[-70.24568,-18.021467],[-70.24672,-18.022208],[-70.247,-18.02234],[-70.247951,-18.022724],[-70.249025,-18.023145],[-70.250335,-18.02368],[-70.251406,-18.024126],[-70.251904,-18.024339],[-70.251712,-18.024876],[-70.251689,-18.025041],[-70.25146,-18.025691],[-70.251231,-18.026495],[-70.251156,-18.026922],[-70.251154,-18.027028],[-70.251162,-18.027113],[-70.251194,-18.027198],[-70.251234,-18.027272],[-70.251344,-18.027411],[-70.251427,-18.027478],[-70.251498,-18.02758],[-70.251538,-18.027678],[-70.251558,-18.027781],[-70.251542,-18.02792],[-70.251486,-18.028022],[-70.251402,-18.028122],[-70.251277,-18.0282],[-70.251121,-18.028241],[-70.25099,-18.028236],[-70.25084,-18.028187],[-70.250737,-18.028221],[-70.250397,-18.028254],[-70.250153,-18.02823],[-70.2477,-18.027524],[-70.24654,-18.027216],[-70.245385,-18.026935],[-70.244533,-18.026668],[-70.243865,-18.026449],[-70.243831,-18.026472],[-70.243849,-18.026729],[-70.243862,-18.026874],[-70.243887,-18.027036],[-70.243963,-18.027293],[-70.244069,-18.027552],[-70.244251,-18.027971],[-70.244358,-18.028237],[-70.244444,-18.028485],[-70.244479,-18.028604],[-70.2445,-18.028735],[-70.24451,-18.028853],[-70.244613,-18.030939],[-70.244792,-18.033965],[-70.245048,-18.039313],[-70.245054,-18.039481],[-70.245057,-18.039653],[-70.245048,-18.039816],[-70.245015,-18.039998],[-70.244941,-18.040231],[-70.244889,-18.040369],[-70.243237,-18.044049],[-70.243167,-18.04421],[-70.243103,-18.044392],[-70.243065,-18.044582],[-70.243059,-18.044834],[-70.243212,-18.047998],[-70.24341,-18.050943],[-70.239868,-18.051083],[-70.239669,-18.051089],[-70.239538,-18.051069],[-70.239085,-18.052138],[-70.239015,-18.052295],[-70.238976,-18.052415],[-70.238956,-18.052492],[-70.238953,-18.052574],[-70.239021,-18.053919],[-70.234976,-18.054089],[-70.234712,-18.053999],[-70.234446,-18.054014],[-70.233961,-18.054071],[-70.233463,-18.054081],[-70.232478,-18.054105],[-70.230539,-18.054189],[-70.230364,-18.054244],[-70.230221,-18.054267],[-70.230041,-18.054276],[-70.229562,-18.054271]]}},
{"type":"Feature","properties":{"ruta_id":"Ruta 10B","sentido":null},"geometry":{"type":"LineString","coordinates":[[-70.263237,-18.074696],[-70.261174,-18.068312],[-70.260043,-18.064798],[-70.25982,-18.064839],[-70.259687,-18.064839],[-70.260103,-18.061592],[-70.260007,-18.061598],[-70.259015,-18.061492],[-70.256374,-18.061182],[-70.256576,-18.0595],[-70.2566,-18.059075],[-70.256675,-18.057327],[-70.25671,-18.056508],[-70.25672,-18.056393],[-70.256912,-18.054945],[-70.257024,-18.053978],[-70.257074,-18.053418],[-70.257106,-18.05307],[-70.257093,-18.052486],[-70.257055,-18.051662],[-70.257031,-18.051423],[-70.257004,-18.051321],[-70.256967,-18.051252],[-70.256575,-18.050447],[-70.256536,-18.050393],[-70.256477,-18.050364],[-70.256348,-18.047533],[-70.256259,-18.045921],[-70.252939,-18.046047],[-70.252877,-18.044486],[-70.250649,-18.044568],[-70.250762,-18.044341],[-70.250897,-18.044046],[-70.251008,-18.04378],[-70.251147,-18.043432],[-70.25126,-18.043073],[-70.251324,-18.042867],[-70.251354,-18.042736],[-70.251389,-18.042518],[-70.251473,-18.041953],[-70.251499,-18.041703],[-70.251522,-18.041435],[-70.251534,-18.04117],[-70.251539,-18.040891],[-70.251535,-18.040688],[-70.251465,-18.038959],[-70.251411,-18.037927],[-70.251399,-18.037456],[-70.251352,-18.03633],[-70.251309,-18.035387],[-70.251257,-18.034284],[-70.251161,-18.032291],[-70.251007,-18.028804],[-70.250989,-18.028384],[-70.250972,-18.028305],[-70.250943,-18.02825],[-70.250888,-18.028199],[-70.250768,-18.028124],[-70.250702,-18.028045],[-70.250654,-18.027968],[-70.250621,-18.027883],[-70.250607,-18.027796],[-70.250622,-18.027688],[-70.250656,-18.027587],[-70.250732,-18.027485],[-70.250829,-18.027409],[-70.250933,-18.027346],[-70.251007,-18.027199],[-70.251073,-18.026905],[-70.251121,-18.026704],[-70.251338,-18.025809],[-70.251607,-18.025028],[-70.251647,-18.024953],[-70.251699,-18.024832],[-70.251857,-18.024354],[-70.252274,-18.02313],[-70.252687,-18.021956],[-70.252837,-18.021456],[-70.252966,-18.020984],[-70.253025,-18.020697],[-70.253053,-18.020519],[-70.25307,-18.020385],[-70.253086,-18.020234],[-70.253096,-18.020085],[-70.253122,-18.019678],[-70.25315,-18.019104],[-70.253221,-18.01772],[-70.253244,-18.017511],[-70.253263,-18.01695],[-70.25314,-18.016885],[-70.252587,-18.016731],[-70.252289,-18.016648],[-70.252042,-18.016533],[-70.251491,-18.016112],[-70.251773,-18.015771],[-70.252025,-18.015555],[-70.252624,-18.016013],[-70.252941,-18.016233],[-70.253232,-18.016447],[-70.253384,-18.016557],[-70.254238,-18.01717],[-70.256342,-18.018746],[-70.256418,-18.018794],[-70.2565,-18.018804],[-70.256573,-18.018765],[-70.256642,-18.018746],[-70.256716,-18.018743],[-70.256793,-18.018756],[-70.256868,-18.01879],[-70.257618,-18.018021],[-70.258334,-18.017247],[-70.258999,-18.016487],[-70.260339,-18.014673],[-70.258572,-18.011082],[-70.258412,-18.011027],[-70.258254,-18.010955],[-70.257795,-18.010668],[-70.257625,-18.010596],[-70.257381,-18.010535],[-70.257258,-18.01055],[-70.257112,-18.010658],[-70.256566,-18.011125],[-70.256007,-18.011589],[-70.253927,-18.010424],[-70.252721,-18.009711],[-70.25265,-18.0098],[-70.25122,-18.00896],[-70.25149,-18.008566],[-70.252124,-18.007683],[-70.252749,-18.006923],[-70.253289,-18.006314],[-70.253518,-18.005961],[-70.253766,-18.005625],[-70.253884,-18.005706],[-70.254395,-18.006104],[-70.255658,-18.00694],[-70.2564,-18.005893],[-70.256995,-18.005101],[-70.257248,-18.004764],[-70.257486,-18.004483],[-70.258074,-18.003824],[-70.258493,-18.003421],[-70.25865,-18.003274],[-70.258838,-18.003172],[-70.259228,-18.002943],[-70.25969,-18.002617],[-70.259799,-18.002504],[-70.259869,-18.002427],[-70.259937,-18.002324],[-70.259985,-18.002223],[-70.260007,-18.002151],[-70.260021,-18.002078],[-70.260027,-18.001977],[-70.260097,-18.000984],[-70.260164,-18.000822],[-70.260267,-18.000686],[-70.26036,-18.000594],[-70.260457,-18.000518],[-70.260507,-18.000459],[-70.260536,-18.000393],[-70.260547,-18.000309],[-70.260533,-18.000245],[-70.258306,-17.998618],[-70.258112,-17.998496],[-70.257613,-17.998226],[-70.257126,-17.997883],[-70.25382,-17.995464],[-70.253324,-17.995129],[-70.25288,-17.994912],[-70.252201,-17.994652],[-70.251844,-17.994549],[-70.251422,-17.994462],[-70.250828,-17.994449],[-70.245042,-17.994414],[-70.244995,-17.997322],[-70.245002,-17.999907],[-70.245014,-18.000161],[-70.245001,-18.000257],[-70.244973,-18.000347],[-70.244742,-18.001003],[-70.24456,-18.001437],[-70.244307,-18.001842],[-70.243876,-18.002418],[-70.243507,-18.002868],[-70.242952,-18.003524],[-70.241505,-18.005095],[-70.241995,-18.005305],[-70.242721,-18.005604],[-70.243055,-18.005718],[-70.243966,-18.005993],[-70.245587,-18.006474],[-70.245766,-18.006507],[-70.245889,-18.006507],[-70.246003,-18.006459],[-70.246078,-18.006384],[-70.246145,-18.006343],[-70.246222,-18.006318],[-70.246558,-18.005943],[-70.247668,-18.00461],[-70.248931,-18.005519],[-70.250622,-18.006701],[-70.249358,-18.007983],[-70.248958,-18.008456],[-70.248401,-18.009165],[-70.24789,-18.009864],[-70.247406,-18.01052],[-70.247063,-18.010968],[-70.246724,-18.011459],[-70.246465,-18.01179],[-70.248128,-18.013101],[-70.249354,-18.014095],[-70.25014,-18.014647],[-70.251622,-18.015637],[-70.251811,-18.015748],[-70.251992,-18.015803],[-70.252592,-18.016048],[-70.252822,-18.016183],[-70.254226,-18.017188],[-70.254014,-18.017437],[-70.253403,-18.016999],[-70.25335,-18.017001],[-70.253327,-18.017556],[-70.253292,-18.017632],[-70.253251,-18.017717],[-70.253184,-18.019111],[-70.253156,-18.019686],[-70.253129,-18.020079],[-70.253117,-18.020236],[-70.253103,-18.02039],[-70.25309,-18.020511],[-70.253061,-18.020697],[-70.253004,-18.020971],[-70.252871,-18.021461],[-70.252709,-18.021974],[-70.252304,-18.023135],[-70.251886,-18.024365],[-70.251729,-18.024841],[-70.251688,-18.025025],[-70.251662,-18.025094],[-70.251412,-18.02583],[-70.251269,-18.026365],[-70.251144,-18.026915],[-70.251152,-18.027073],[-70.251198,-18.027215],[-70.251257,-18.027309],[-70.251326,-18.027397],[-70.251413,-18.027466],[-70.251487,-18.027564],[-70.251521,-18.027631],[-70.251547,-18.027699],[-70.251554,-18.027779],[-70.25155,-18.027864],[-70.251529,-18.027928],[-70.251498,-18.027999],[-70.251409,-18.028114],[-70.25128,-18.028193],[-70.251221,-18.02827],[-70.251191,-18.028327],[-70.25117,-18.028384],[-70.251334,-18.032281],[-70.251428,-18.034328],[-70.251467,-18.03487],[-70.25153,-18.035129],[-70.251556,-18.035386],[-70.251604,-18.036317],[-70.251638,-18.037285],[-70.251757,-18.039688],[-70.251794,-18.040692],[-70.256015,-18.040523],[-70.256159,-18.040496],[-70.256386,-18.045913],[-70.256473,-18.047535],[-70.256534,-18.048862],[-70.256556,-18.049675],[-70.25658,-18.049803],[-70.256633,-18.049924],[-70.256799,-18.050054],[-70.256897,-18.050073],[-70.256972,-18.050107],[-70.257009,-18.05014],[-70.257044,-18.050178],[-70.25707,-18.050229],[-70.257089,-18.05029],[-70.257087,-18.050352],[-70.257076,-18.050417],[-70.257105,-18.050496],[-70.257119,-18.050614],[-70.257173,-18.051238],[-70.25718,-18.051651],[-70.25721,-18.052469],[-70.257244,-18.053057],[-70.257234,-18.053312],[-70.257142,-18.053989],[-70.257022,-18.054963],[-70.25684,-18.056322],[-70.256818,-18.056498],[-70.25678,-18.05734],[-70.256718,-18.059037],[-70.256698,-18.059519],[-70.256477,-18.061174],[-70.259021,-18.061477],[-70.260012,-18.061585],[-70.260179,-18.061577],[-70.260265,-18.061579],[-70.259831,-18.06473],[-70.260035,-18.064678],[-70.26121,-18.068301],[-70.263278,-18.074688]]}},
{"type":"Feature","properties":{"ruta_id":"Ruta 11","sentido":null},"geometry":{"type":"LineString","coordinates":[[-70.247847,-18.076225],[-70.24742,-18.076028],[-70.247293,-18.075942],[-70.248863,-18.059773],[-70.251725,-18.059669],[-70.251649,-18.056708],[-70.254548,-18.056577],[-70.254999,-18.053054],[-70.255048,-18.052878],[-70.25511,-18.052692],[-70.254968,-18.05029],[-70.256476,-18.050201],[-70.256197,-18.044361],[-70.256318,-18.044342],[-70.257182,-18.045144],[-70.259716,-18.047341],[-70.261935,-18.04503],[-70.261864,-18.044923],[-70.257428,-18.041068],[-70.256539,-18.041954],[-70.256383,-18.042142],[-70.256226,-18.04241],[-70.256105,-18.042412],[-70.256026,-18.040525],[-70.251532,-18.040698],[-70.250993,-18.028351],[-70.250963,-18.028281],[-70.25092,-18.028226],[-70.250832,-18.028171],[-70.25075,-18.028106],[-70.250669,-18.028017],[-70.250629,-18.027933],[-70.250614,-18.027829],[-70.250615,-18.027724],[-70.250647,-18.027613],[-70.250691,-18.027528],[-70.25076,-18.027455],[-70.25084,-18.027392],[-70.250924,-18.027341],[-70.25098,-18.027259],[-70.251018,-18.027177],[-70.251039,-18.027072],[-70.251302,-18.025922],[-70.251597,-18.025044],[-70.251697,-18.024842],[-70.252673,-18.021982],[-70.252848,-18.021425],[-70.25291,-18.021193],[-70.253001,-18.020835],[-70.253068,-18.020431],[-70.253134,-18.019497],[-70.253267,-18.016967],[-70.253227,-18.016917],[-70.252576,-18.016729],[-70.252351,-18.016673],[-70.252014,-18.016522],[-70.251455,-18.01608],[-70.249327,-18.014332],[-70.247992,-18.013245],[-70.246312,-18.011964],[-70.245225,-18.0111],[-70.24558,-18.010642],[-70.245751,-18.010342],[-70.245827,-18.010124],[-70.246058,-18.009736],[-70.246381,-18.009147],[-70.24693,-18.008183],[-70.24745,-18.007266],[-70.247232,-18.007108],[-70.247036,-18.006981],[-70.24674,-18.00683],[-70.24655,-18.006761],[-70.246482,-18.006749],[-70.246427,-18.006795],[-70.246355,-18.006835],[-70.24623,-18.006848],[-70.246135,-18.006817],[-70.246041,-18.006748],[-70.242524,-18.005968],[-70.242303,-18.005915],[-70.242078,-18.005834],[-70.24167,-18.005643],[-70.241222,-18.00538],[-70.240644,-18.004991],[-70.240059,-18.004548],[-70.240205,-18.004369],[-70.240658,-18.004708],[-70.240892,-18.00485],[-70.241396,-18.005062],[-70.24156,-18.004905],[-70.242868,-18.00347],[-70.243412,-18.002803],[-70.243795,-18.002359],[-70.244186,-18.001848],[-70.244374,-18.001561],[-70.244466,-18.001404],[-70.244702,-18.000853],[-70.244783,-18.000625],[-70.244873,-18.000397],[-70.244903,-18.000301],[-70.244917,-18.000202],[-70.244905,-17.998646],[-70.244882,-17.997241],[-70.244913,-17.994242],[-70.247487,-17.994223],[-70.250267,-17.994256],[-70.250819,-17.994257],[-70.251228,-17.994299],[-70.251987,-17.994449],[-70.251997,-17.993746],[-70.252153,-17.993805],[-70.252152,-17.994809],[-70.25213,-17.997161],[-70.252112,-17.997836],[-70.250691,-17.999337],[-70.250591,-17.999464],[-70.249469,-18.001184],[-70.24895,-18.002057],[-70.248748,-18.002694],[-70.248603,-18.003143],[-70.248453,-18.003406],[-70.24768,-18.004611],[-70.248932,-18.00552],[-70.25062,-18.006707],[-70.249372,-18.007984],[-70.24898,-18.008441],[-70.248403,-18.00917],[-70.247407,-18.010522],[-70.247066,-18.010971],[-70.246731,-18.011451],[-70.246462,-18.011797],[-70.248122,-18.013103],[-70.249461,-18.014179],[-70.251324,-18.01544],[-70.251769,-18.015732],[-70.251997,-18.015812],[-70.252599,-18.016051],[-70.252773,-18.016135],[-70.253271,-18.016487],[-70.254233,-18.017181],[-70.254011,-18.017441],[-70.253405,-18.017],[-70.253355,-18.016988],[-70.253328,-18.017535],[-70.253247,-18.01774],[-70.253166,-18.01949],[-70.253101,-18.020423],[-70.253028,-18.020842],[-70.252939,-18.0212],[-70.252875,-18.02143],[-70.252698,-18.021993],[-70.252171,-18.023524],[-70.251724,-18.024855],[-70.251678,-18.025054],[-70.251513,-18.025562],[-70.251317,-18.026153],[-70.251179,-18.026723],[-70.251144,-18.026943],[-70.251149,-18.027082],[-70.251184,-18.027179],[-70.251315,-18.027386],[-70.25143,-18.02748],[-70.251501,-18.027595],[-70.251541,-18.027691],[-70.251558,-18.027807],[-70.251543,-18.027903],[-70.251501,-18.028002],[-70.25144,-18.02808],[-70.251373,-18.028149],[-70.251269,-18.02821],[-70.25121,-18.028291],[-70.251174,-18.02837],[-70.251174,-18.02846],[-70.25144,-18.034526],[-70.251461,-18.03482],[-70.251539,-18.035143],[-70.25156,-18.035414],[-70.251792,-18.040671],[-70.251783,-18.041222],[-70.251757,-18.041673],[-70.25171,-18.042074],[-70.251577,-18.042744],[-70.251504,-18.043084],[-70.25137,-18.043442],[-70.251141,-18.044021],[-70.251024,-18.044246],[-70.250973,-18.044555],[-70.251103,-18.047777],[-70.252568,-18.047711],[-70.252708,-18.050414],[-70.255004,-18.050302],[-70.255139,-18.052711],[-70.255138,-18.052911],[-70.255136,-18.053072],[-70.254682,-18.056686],[-70.25175,-18.056818],[-70.251858,-18.059696],[-70.248991,-18.059797],[-70.247428,-18.076002],[-70.247865,-18.076206]]}},
{"type":"Feature","properties":{"ruta_id":"Ruta 13","sentido":null},"geometry":{"type":"LineString","coordinates":[[-70.228011,-18.06124],[-70.228427,-18.061311],[-70.228883,-18.061408],[-70.230216,-18.061694],[-70.237209,-18.063172],[-70.237379,-18.063155],[-70.237114,-18.064187],[-70.236429,-18.067079],[-70.236607,-18.067061],[-70.23668,-18.067056],[-70.237159,-18.067086],[-70.23769,-18.06712],[-70.238249,-18.067167],[-70.238413,-18.067178],[-70.238518,-18.067194],[-70.23864,-18.067221],[-70.238793,-18.067221],[-70.238888,-18.067152],[-70.238856,-18.067016],[-70.238843,-18.066945],[-70.23882,-18.066823],[-70.238793,-18.066634],[-70.238773,-18.066482],[-70.238749,-18.066167],[-70.238737,-18.065935],[-70.238733,-18.065691],[-70.238741,-18.065472],[-70.238756,-18.065252],[-70.238776,-18.06507],[-70.238803,-18.06486],[-70.23884,-18.064641],[-70.238873,-18.064459],[-70.23894,-18.064183],[-70.238993,-18.063998],[-70.239073,-18.063739],[-70.239135,-18.06357],[-70.239243,-18.063299],[-70.239391,-18.062989],[-70.251403,-18.064034],[-70.251445,-18.063938],[-70.25151,-18.063843],[-70.251567,-18.063779],[-70.251666,-18.063702],[-70.25178,-18.063634],[-70.251912,-18.063598],[-70.251717,-18.059528],[-70.251657,-18.05682],[-70.251526,-18.054279],[-70.251492,-18.053516],[-70.251544,-18.053151],[-70.251417,-18.050619],[-70.251447,-18.050468],[-70.256473,-18.050206],[-70.256212,-18.044842],[-70.25611,-18.042412],[-70.253843,-18.042503],[-70.253636,-18.037652],[-70.251503,-18.037747],[-70.251407,-18.037716],[-70.25117,-18.032569],[-70.250994,-18.028428],[-70.250978,-18.028308],[-70.250932,-18.028211],[-70.250795,-18.028148],[-70.250677,-18.028024],[-70.250626,-18.027904],[-70.250609,-18.027789],[-70.250619,-18.027702],[-70.250673,-18.027572],[-70.250723,-18.027494],[-70.250806,-18.027424],[-70.250897,-18.027378],[-70.250962,-18.027289],[-70.251009,-18.027191],[-70.251059,-18.026997],[-70.251266,-18.026079],[-70.251376,-18.025681],[-70.251608,-18.025011],[-70.251697,-18.024843],[-70.251865,-18.024341],[-70.249032,-18.023159],[-70.249448,-18.021971],[-70.249476,-18.020677],[-70.249608,-18.020037],[-70.249837,-18.019449],[-70.250149,-18.018446],[-70.250538,-18.017574],[-70.251215,-18.016862],[-70.251642,-18.016343],[-70.251506,-18.016086],[-70.252051,-18.015528],[-70.25329,-18.016482],[-70.256477,-18.018858],[-70.256633,-18.018766],[-70.256782,-18.018763],[-70.256868,-18.018787],[-70.257606,-18.018012],[-70.258013,-18.017584],[-70.258672,-18.016851],[-70.258971,-18.016512],[-70.259031,-18.016445],[-70.259539,-18.015751],[-70.260306,-18.014727],[-70.260332,-18.014646],[-70.258571,-18.011091],[-70.25834,-18.011001],[-70.258062,-18.010839],[-70.257826,-18.010685],[-70.257656,-18.010604],[-70.257424,-18.010544],[-70.25729,-18.010539],[-70.257169,-18.010612],[-70.256007,-18.011588],[-70.254969,-18.011006],[-70.253922,-18.010421],[-70.253435,-18.01014],[-70.252717,-18.009709],[-70.252654,-18.0098],[-70.251933,-18.009388],[-70.251223,-18.008958],[-70.250144,-18.008418],[-70.250064,-18.00835],[-70.249908,-18.008322],[-70.249234,-18.008048],[-70.247964,-18.007529],[-70.247455,-18.007265],[-70.247256,-18.007122],[-70.247,-18.006956],[-70.246728,-18.006827],[-70.246491,-18.006745],[-70.246436,-18.006792],[-70.246368,-18.006828],[-70.246288,-18.006847],[-70.246191,-18.006837],[-70.246109,-18.006802],[-70.246051,-18.00675],[-70.24376,-18.006251],[-70.242802,-18.006034],[-70.242364,-18.005929],[-70.242192,-18.005879],[-70.241718,-18.005669],[-70.241274,-18.00541],[-70.241062,-18.00529],[-70.240053,-18.004548],[-70.240205,-18.004366],[-70.240762,-18.004781],[-70.241046,-18.004925],[-70.241408,-18.005063],[-70.242866,-18.003478],[-70.244178,-18.001852],[-70.244286,-18.001697],[-70.244379,-18.001555],[-70.244476,-18.001375],[-70.244593,-18.001115],[-70.244781,-18.000652],[-70.244856,-18.000454],[-70.244908,-18.000253],[-70.244915,-18.000122],[-70.244889,-17.997308],[-70.244909,-17.994276],[-70.24503,-17.994245],[-70.245262,-17.994236],[-70.24746,-17.994228],[-70.250333,-17.994256],[-70.25054,-17.994257],[-70.250911,-17.994269],[-70.251257,-17.994309],[-70.251851,-17.994425],[-70.252132,-17.994491],[-70.252373,-17.994572],[-70.252893,-17.994762],[-70.253214,-17.994903],[-70.253475,-17.99506],[-70.253663,-17.995187],[-70.257283,-17.997847],[-70.258318,-17.998539],[-70.259064,-17.999071],[-70.261772,-18.00107],[-70.262078,-18.0013],[-70.262335,-18.001471],[-70.262517,-18.00156],[-70.262821,-18.001634],[-70.262898,-18.001625],[-70.262979,-18.001633],[-70.263061,-18.001671],[-70.263113,-18.001728],[-70.263146,-18.001798],[-70.263157,-18.001885],[-70.263132,-18.00196],[-70.263104,-18.002011],[-70.263032,-18.002071],[-70.262919,-18.002101],[-70.262814,-18.002091],[-70.262731,-18.002038],[-70.262582,-18.002027],[-70.262432,-18.002031],[-70.261723,-18.002177],[-70.261082,-18.00231],[-70.26083,-18.002378],[-70.26063,-18.002454],[-70.260177,-18.002655],[-70.2595,-18.002974],[-70.259156,-18.003151],[-70.259056,-18.003231],[-70.258969,-18.003372],[-70.258989,-18.003431],[-70.258988,-18.0035],[-70.258963,-18.003575],[-70.258904,-18.003655],[-70.258851,-18.003677],[-70.258774,-18.003695],[-70.258697,-18.003685],[-70.258633,-18.00366],[-70.258468,-18.003672],[-70.25832,-18.003746],[-70.257739,-18.004339],[-70.256851,-18.005441],[-70.256566,-18.005837],[-70.255817,-18.006974],[-70.254262,-18.009153],[-70.253975,-18.00938],[-70.253016,-18.009267],[-70.252762,-18.009218],[-70.252515,-18.009147],[-70.252208,-18.009029],[-70.251401,-18.008701],[-70.250607,-18.008396],[-70.250454,-18.008362],[-70.250201,-18.008342],[-70.250063,-18.008324],[-70.249919,-18.008293],[-70.249321,-18.00805],[-70.248927,-18.008514],[-70.249622,-18.009079],[-70.249499,-18.009197],[-70.249153,-18.009674],[-70.254176,-18.01299],[-70.254454,-18.013179],[-70.256908,-18.014778],[-70.257722,-18.01545],[-70.258345,-18.015915],[-70.259023,-18.016505],[-70.258699,-18.016871],[-70.258039,-18.017603],[-70.25763,-18.018034],[-70.256897,-18.018805],[-70.256946,-18.018869],[-70.256983,-18.018943],[-70.256995,-18.019068],[-70.256983,-18.019121],[-70.256958,-18.019175],[-70.256875,-18.019259],[-70.256812,-18.019294],[-70.256737,-18.019309],[-70.256623,-18.019309],[-70.256508,-18.019255],[-70.256442,-18.019191],[-70.253396,-18.016988],[-70.253363,-18.017001],[-70.253351,-18.017052],[-70.25333,-18.017552],[-70.25325,-18.017705],[-70.253222,-18.018366],[-70.25318,-18.019122],[-70.253165,-18.019375],[-70.253147,-18.019793],[-70.253112,-18.020286],[-70.253089,-18.020479],[-70.253061,-18.020656],[-70.253019,-18.020884],[-70.252935,-18.021203],[-70.252864,-18.021463],[-70.252711,-18.021977],[-70.252304,-18.023133],[-70.251897,-18.024347],[-70.251728,-18.024849],[-70.251683,-18.025044],[-70.251467,-18.025694],[-70.251318,-18.026152],[-70.251206,-18.026604],[-70.251146,-18.026925],[-70.251147,-18.027014],[-70.251147,-18.027085],[-70.251179,-18.027166],[-70.251238,-18.027278],[-70.251307,-18.027366],[-70.251399,-18.027454],[-70.251457,-18.027512],[-70.25152,-18.027624],[-70.251546,-18.027716],[-70.251555,-18.027796],[-70.251546,-18.027892],[-70.25151,-18.027972],[-70.251444,-18.028071],[-70.251356,-18.028148],[-70.251268,-18.028201],[-70.251221,-18.028279],[-70.251172,-18.028387],[-70.251332,-18.032279],[-70.251458,-18.034786],[-70.251531,-18.035134],[-70.251559,-18.035423],[-70.251583,-18.035849],[-70.251798,-18.040681],[-70.251763,-18.041702],[-70.251696,-18.042128],[-70.251582,-18.042737],[-70.2515,-18.043094],[-70.251132,-18.044044],[-70.251013,-18.04426],[-70.250971,-18.04455],[-70.256313,-18.044345],[-70.256556,-18.049691],[-70.256582,-18.049806],[-70.25664,-18.049922],[-70.256799,-18.050061],[-70.256897,-18.050072],[-70.256983,-18.050107],[-70.257035,-18.050169],[-70.257075,-18.050241],[-70.257088,-18.050325],[-70.257074,-18.050429],[-70.257103,-18.050493],[-70.257119,-18.0506],[-70.257166,-18.051232],[-70.2572,-18.052278],[-70.257244,-18.053075],[-70.257235,-18.053308],[-70.257086,-18.054452],[-70.254999,-18.054199],[-70.25494,-18.054678],[-70.251619,-18.054284],[-70.251745,-18.056815],[-70.251855,-18.059521],[-70.252043,-18.063594],[-70.252172,-18.063607],[-70.252313,-18.063663],[-70.252465,-18.063762],[-70.252566,-18.063888],[-70.252632,-18.064045],[-70.252658,-18.064216],[-70.252629,-18.064363],[-70.252558,-18.064527],[-70.252447,-18.064648],[-70.252317,-18.064725],[-70.252143,-18.0648],[-70.251919,-18.064805],[-70.25176,-18.064754],[-70.25164,-18.064694],[-70.251498,-18.064557],[-70.251425,-18.064416],[-70.251392,-18.064294],[-70.251382,-18.064165],[-70.239362,-18.063116],[-70.239269,-18.063307],[-70.239164,-18.063571],[-70.239101,-18.063745],[-70.23902,-18.064004],[-70.238967,-18.064188],[-70.238905,-18.064461],[-70.238865,-18.064644],[-70.238833,-18.064863],[-70.238805,-18.065074],[-70.238787,-18.065254],[-70.238771,-18.065474],[-70.238768,-18.065694],[-70.23877,-18.06593],[-70.238783,-18.066167],[-70.238807,-18.066474],[-70.238831,-18.066634],[-70.238856,-18.066824],[-70.238877,-18.066937],[-70.23889,-18.067007],[-70.238947,-18.067253],[-70.238899,-18.067265],[-70.238807,-18.067239],[-70.238641,-18.06724],[-70.238516,-18.067211],[-70.238413,-18.067195],[-70.23825,-18.067183],[-70.237685,-18.067139],[-70.237155,-18.067106],[-70.236677,-18.067076],[-70.2366,-18.06708],[-70.236398,-18.067102],[-70.23709,-18.064181],[-70.237349,-18.063187],[-70.237214,-18.063202],[-70.230209,-18.061726],[-70.228876,-18.061438],[-70.228419,-18.061341],[-70.22801,-18.061273]]}},
{"type":"Feature","properties":{"ruta_id":"Ruta 15","sentido":null},"geometry":{"type":"LineString","coordinates":[[-70.251486,-18.054284],[-70.249599,-18.054368],[-70.248562,-18.054422],[-70.248045,-18.054451],[-70.247513,-18.054471],[-70.246451,-18.054531],[-70.245923,-18.054557],[-70.245397,-18.054575],[-70.244929,-18.054577],[-70.244376,-18.054601],[-70.243973,-18.054633],[-70.243641,-18.054645],[-70.24346,-18.054628],[-70.243404,-18.053686],[-70.243251,-18.050902],[-70.243086,-18.047998],[-70.247293,-18.047825],[-70.24715,-18.044679],[-70.250664,-18.044564],[-70.2509,-18.044049],[-70.251141,-18.043452],[-70.251333,-18.04285],[-70.251448,-18.042158],[-70.251518,-18.041521],[-70.251535,-18.041235],[-70.251541,-18.040951],[-70.251538,-18.040697],[-70.250994,-18.028412],[-70.250972,-18.028306],[-70.250928,-18.028212],[-70.250841,-18.02817],[-70.250749,-18.028113],[-70.250679,-18.028024],[-70.250633,-18.027929],[-70.250616,-18.027828],[-70.250621,-18.027731],[-70.250635,-18.027632],[-70.25072,-18.027499],[-70.25083,-18.02741],[-70.250923,-18.027363],[-70.251004,-18.027207],[-70.251033,-18.027075],[-70.251177,-18.026425],[-70.251285,-18.025995],[-70.251379,-18.02567],[-70.251607,-18.025013],[-70.251697,-18.024839],[-70.251861,-18.024341],[-70.250325,-18.023691],[-70.249024,-18.02315],[-70.249455,-18.021979],[-70.24947,-18.021849],[-70.249526,-18.020651],[-70.249556,-18.020346],[-70.249599,-18.020095],[-70.24968,-18.019822],[-70.249798,-18.019458],[-70.24995,-18.018925],[-70.250132,-18.018433],[-70.25039,-18.017791],[-70.250519,-18.017576],[-70.250844,-18.017233],[-70.251197,-18.016837],[-70.251612,-18.016338],[-70.2515,-18.016128],[-70.251284,-18.015938],[-70.249325,-18.014337],[-70.24799,-18.013247],[-70.246312,-18.01196],[-70.245227,-18.011104],[-70.245377,-18.0109],[-70.245584,-18.010633],[-70.245756,-18.010326],[-70.245827,-18.010121],[-70.24606,-18.009733],[-70.246379,-18.009153],[-70.246927,-18.008186],[-70.247451,-18.007265],[-70.247093,-18.007019],[-70.246926,-18.006925],[-70.246747,-18.006837],[-70.246612,-18.006784],[-70.246488,-18.006744],[-70.246423,-18.006796],[-70.246339,-18.006839],[-70.24622,-18.006845],[-70.246135,-18.006814],[-70.246054,-18.006755],[-70.242532,-18.005976],[-70.242309,-18.005914],[-70.24209,-18.00583],[-70.241761,-18.005688],[-70.241476,-18.005531],[-70.241032,-18.005269],[-70.240056,-18.004556],[-70.240205,-18.004369],[-70.240675,-18.00472],[-70.240916,-18.004867],[-70.241411,-18.005069],[-70.242871,-18.003469],[-70.243416,-18.002803],[-70.243807,-18.00236],[-70.244182,-18.001846],[-70.244467,-18.001394],[-70.244703,-18.000853],[-70.244893,-18.000341],[-70.244919,-18.000186],[-70.244918,-17.999912],[-70.24489,-17.997312],[-70.244913,-17.99434],[-70.244919,-17.994041],[-70.244897,-17.993681],[-70.24482,-17.993347],[-70.244721,-17.993153],[-70.244605,-17.993003],[-70.244422,-17.992911],[-70.243644,-17.992888],[-70.243467,-17.992797],[-70.242329,-17.992001],[-70.241481,-17.991384],[-70.240174,-17.990434],[-70.239035,-17.989614],[-70.238218,-17.988982],[-70.237257,-17.988287],[-70.235316,-17.986995],[-70.237795,-17.983521],[-70.229634,-17.978002],[-70.2254,-17.975207],[-70.225461,-17.975146],[-70.237863,-17.983433],[-70.240801,-17.985393],[-70.242402,-17.986447],[-70.243224,-17.986988],[-70.244525,-17.987797],[-70.246116,-17.988618],[-70.246659,-17.988919],[-70.244781,-17.991531],[-70.244389,-17.992051],[-70.24425,-17.992282],[-70.244225,-17.992405],[-70.244677,-17.992906],[-70.244818,-17.993099],[-70.244884,-17.993213],[-70.244932,-17.993326],[-70.244961,-17.993428],[-70.244985,-17.99358],[-70.245021,-17.994033],[-70.245034,-17.994327],[-70.245029,-17.995567],[-70.244998,-17.997315],[-70.245002,-17.999911],[-70.245005,-18.000198],[-70.24497,-18.000362],[-70.244787,-18.000883],[-70.244552,-18.001449],[-70.244276,-18.001891],[-70.24388,-18.002413],[-70.2435,-18.002862],[-70.242942,-18.003521],[-70.24149,-18.005102],[-70.242719,-18.005603],[-70.242863,-18.005656],[-70.243962,-18.005999],[-70.245598,-18.006478],[-70.245732,-18.006512],[-70.245864,-18.006513],[-70.246021,-18.006459],[-70.2461,-18.00637],[-70.246185,-18.006324],[-70.246316,-18.006319],[-70.246453,-18.00638],[-70.24665,-18.0064],[-70.246767,-18.006432],[-70.247616,-18.007104],[-70.247929,-18.00676],[-70.248194,-18.006445],[-70.248931,-18.00552],[-70.250623,-18.006709],[-70.249328,-18.008027],[-70.248411,-18.009158],[-70.247889,-18.00986],[-70.246464,-18.011795],[-70.248755,-18.013611],[-70.249353,-18.014101],[-70.250092,-18.014617],[-70.251744,-18.01572],[-70.251933,-18.015784],[-70.252659,-18.016076],[-70.253302,-18.016504],[-70.254231,-18.017177],[-70.254015,-18.017442],[-70.253394,-18.016989],[-70.253357,-18.017023],[-70.253331,-18.01755],[-70.253249,-18.017738],[-70.25318,-18.019117],[-70.253136,-18.020021],[-70.253123,-18.020226],[-70.253088,-18.020531],[-70.252935,-18.021198],[-70.252865,-18.021469],[-70.252708,-18.021973],[-70.252307,-18.023134],[-70.251894,-18.024349],[-70.251462,-18.02571],[-70.251245,-18.026451],[-70.251193,-18.026675],[-70.251147,-18.026904],[-70.251153,-18.027083],[-70.25121,-18.027234],[-70.251297,-18.027376],[-70.251402,-18.027451],[-70.251509,-18.027598],[-70.251553,-18.027733],[-70.251546,-18.027888],[-70.251467,-18.028048],[-70.251346,-18.028159],[-70.251261,-18.028208],[-70.251196,-18.028316],[-70.251172,-18.028386],[-70.251172,-18.028437],[-70.251449,-18.034663],[-70.251475,-18.034894],[-70.251538,-18.035145],[-70.25156,-18.035417],[-70.251661,-18.037747],[-70.251593,-18.037821],[-70.251474,-18.037896],[-70.251399,-18.037927],[-70.248758,-18.038015],[-70.248943,-18.042095],[-70.247139,-18.042159],[-70.247402,-18.047986],[-70.243218,-18.04817],[-70.243403,-18.050899],[-70.243544,-18.053679],[-70.243576,-18.054611],[-70.243668,-18.054624],[-70.243972,-18.054614],[-70.244375,-18.054583],[-70.244931,-18.05456],[-70.245397,-18.054556],[-70.245923,-18.05454],[-70.24645,-18.054513],[-70.247512,-18.054453],[-70.248042,-18.054433],[-70.248558,-18.054402],[-70.249599,-18.054351],[-70.251485,-18.054265]]}},
{"type":"Feature","properties":{"ruta_id":"Ruta 16","sentido":null},"geometry":{"type":"LineString","coordinates":[[-70.216726,-17.974839],[-70.217131,-17.974524],[-70.216895,-17.974077],[-70.217651,-17.97344],[-70.219236,-17.972029],[-70.219907,-17.972721],[-70.220598,-17.97341],[-70.221258,-17.974118],[-70.221912,-17.974753],[-70.222415,-17.974285],[-70.223017,-17.97489],[-70.223185,-17.975045],[-70.223447,-17.97522],[-70.223503,-17.975285],[-70.223896,-17.976398],[-70.224317,-17.977564],[-70.224939,-17.979332],[-70.225136,-17.979849],[-70.225776,-17.981734],[-70.22581,-17.981846],[-70.225856,-17.98208],[-70.226001,-17.982322],[-70.226209,-17.982704],[-70.226707,-17.983476],[-70.225999,-17.98404],[-70.225563,-17.984368],[-70.226291,-17.984836],[-70.226356,-17.984893],[-70.226884,-17.985517],[-70.227513,-17.986241],[-70.227613,-17.986353],[-70.227745,-17.986425],[-70.227959,-17.986506],[-70.228118,-17.986621],[-70.228266,-17.986782],[-70.228348,-17.98698],[-70.228419,-17.987198],[-70.228458,-17.987403],[-70.228479,-17.988216],[-70.227708,-17.989141],[-70.226893,-17.990029],[-70.225991,-17.99096],[-70.225513,-17.991449],[-70.225083,-17.991835],[-70.225451,-17.992202],[-70.226466,-17.993137],[-70.226679,-17.99328],[-70.226865,-17.993332],[-70.227663,-17.993452],[-70.22793,-17.993443],[-70.227059,-17.995067],[-70.227514,-17.995207],[-70.228406,-17.995507],[-70.228761,-17.995666],[-70.229467,-17.996173],[-70.230255,-17.996818],[-70.234477,-18.000609],[-70.234546,-18.000661],[-70.234638,-18.000682],[-70.235028,-18.0007],[-70.235447,-18.000743],[-70.235645,-18.000758],[-70.235841,-18.000793],[-70.236009,-18.000848],[-70.236159,-18.000916],[-70.236308,-18.00101],[-70.236586,-18.001231],[-70.237606,-18.002133],[-70.239554,-18.003798],[-70.24021,-18.004365],[-70.240709,-18.004747],[-70.240918,-18.004863],[-70.241151,-18.004962],[-70.241398,-18.005062],[-70.241708,-18.004747],[-70.242871,-18.003472],[-70.243807,-18.002356],[-70.244183,-18.001848],[-70.244471,-18.001391],[-70.244711,-18.00084],[-70.244867,-18.000417],[-70.244914,-18.000191],[-70.244914,-17.999402],[-70.24489,-17.997303],[-70.24491,-17.994268],[-70.245068,-17.994239],[-70.248256,-17.994233],[-70.250805,-17.994254],[-70.251284,-17.994312],[-70.251988,-17.994452],[-70.252129,-17.99449],[-70.252914,-17.994768],[-70.253272,-17.994934],[-70.253558,-17.995114],[-70.256131,-17.996998],[-70.257346,-17.997883],[-70.25857,-17.998709],[-70.259031,-17.99905],[-70.262082,-18.001299],[-70.262346,-18.001482],[-70.262537,-18.00157],[-70.262829,-18.001633],[-70.262937,-18.001625],[-70.263035,-18.001661],[-70.263102,-18.00171],[-70.263151,-18.001809],[-70.263149,-18.001915],[-70.263109,-18.001998],[-70.263049,-18.00206],[-70.26295,-18.002095],[-70.262858,-18.002094],[-70.262739,-18.002054],[-70.262616,-18.002032],[-70.262406,-18.002035],[-70.260941,-18.002342],[-70.260653,-18.00244],[-70.259536,-18.002964],[-70.25914,-18.003161],[-70.259058,-18.003233],[-70.258972,-18.003367],[-70.258985,-18.003421],[-70.258988,-18.003476],[-70.258977,-18.003541],[-70.258943,-18.003612],[-70.25886,-18.003677],[-70.258771,-18.003693],[-70.25867,-18.003678],[-70.2586,-18.003657],[-70.25848,-18.003669],[-70.258331,-18.003737],[-70.258156,-18.003921],[-70.257735,-18.004343],[-70.257366,-18.004811],[-70.256549,-18.005865],[-70.255811,-18.006987],[-70.255291,-18.007717],[-70.254263,-18.009156],[-70.253953,-18.009397],[-70.253437,-18.01014],[-70.252979,-18.01077],[-70.252272,-18.011731],[-70.256182,-18.014302],[-70.256827,-18.013411],[-70.257168,-18.013537],[-70.258077,-18.011926],[-70.257698,-18.011742],[-70.257308,-18.011489],[-70.257869,-18.010951],[-70.258055,-18.010829],[-70.257827,-18.010684],[-70.257651,-18.010605],[-70.257432,-18.010546],[-70.257288,-18.010529],[-70.257078,-18.010477],[-70.255252,-18.009753],[-70.254397,-18.009444],[-70.254221,-18.009409],[-70.25302,-18.009269],[-70.25274,-18.009212],[-70.252517,-18.009146],[-70.251404,-18.008695],[-70.250627,-18.0084],[-70.250444,-18.008363],[-70.249955,-18.008321],[-70.248761,-18.007859],[-70.247955,-18.007524],[-70.247461,-18.007262],[-70.246991,-18.006952],[-70.246731,-18.006823],[-70.246489,-18.006738],[-70.24644,-18.006789],[-70.246364,-18.006829],[-70.246266,-18.006845],[-70.246173,-18.006831],[-70.246107,-18.006794],[-70.246049,-18.006754],[-70.243718,-18.006238],[-70.242718,-18.006011],[-70.242189,-18.005876],[-70.241765,-18.005688],[-70.241123,-18.005331],[-70.240054,-18.004557],[-70.239354,-18.004041],[-70.238332,-18.003278],[-70.237851,-18.002923],[-70.237315,-18.00256],[-70.23677,-18.002265],[-70.236258,-18.002026],[-70.23474,-18.001237],[-70.236482,-17.998758],[-70.236019,-17.998475],[-70.235524,-17.99823],[-70.23459,-17.99787],[-70.234072,-17.997658],[-70.23358,-17.997408],[-70.232622,-17.996861],[-70.231904,-17.996394],[-70.231435,-17.996146],[-70.231261,-17.996056],[-70.228972,-17.995293],[-70.229419,-17.994061],[-70.227887,-17.993578],[-70.227546,-17.994223],[-70.226545,-17.993329],[-70.225384,-17.992261],[-70.224996,-17.991892],[-70.223592,-17.99042],[-70.223934,-17.990125],[-70.225012,-17.988994],[-70.225311,-17.98866],[-70.22542,-17.988439],[-70.225602,-17.98822],[-70.225745,-17.988],[-70.226274,-17.98735],[-70.226699,-17.98686],[-70.226909,-17.986665],[-70.227088,-17.986562],[-70.227497,-17.986249],[-70.22687,-17.985531],[-70.226339,-17.984903],[-70.226274,-17.984846],[-70.225532,-17.984367],[-70.225985,-17.984027],[-70.226673,-17.983481],[-70.226184,-17.982723],[-70.225975,-17.982336],[-70.225831,-17.982094],[-70.225781,-17.981854],[-70.225745,-17.981746],[-70.225107,-17.97986],[-70.22491,-17.979342],[-70.224285,-17.977571],[-70.223868,-17.976412],[-70.22348,-17.975297],[-70.223425,-17.975232],[-70.223157,-17.975082],[-70.222978,-17.974976],[-70.222362,-17.974359],[-70.221919,-17.974769],[-70.220934,-17.975668],[-70.220505,-17.976042],[-70.220272,-17.976207],[-70.219952,-17.976398],[-70.219735,-17.976593],[-70.218789,-17.977313],[-70.216727,-17.974862]]}}
]
}
